global_id,Name,BalanceHolder,AdmArea,District,Address,lon,lat
2566160457,"Станция №2, 22 кВт",Департамент транспорта и развития дорожно-транспортной инфраструктуры города Москвы,Центральный административный округ,район Замоскворечье,"Российская Федерация, город Москва, внутригородская территория муниципальный округ Замоскворечье, улица Бахрушина, дом 18, строение 3",37.63573,55.73453
2566160494,"Станция №71, 22 кВт",Департамент транспорта и развития дорожно-транспортной инфраструктуры города Москвы,Центральный административный округ,Таганский район,"Российская Федерация, город Москва, внутригородская территория муниципальный округ Таганский, улица Большие Каменщики, дом 6, строение 1",37.65551,55.73631
2566160642,"Станция №72, 22 кВт",Департамент транспорта и развития дорожно-транспортной инфраструктуры города Москвы,Центральный административный округ,Таганский район,"Российская Федерация, город Москва, внутригородская территория муниципальный округ Таганский, улица Большие Каменщики, дом 6, строение 1А",37.655608,55.736211
2566178202,"Станция №73, 50 кВт",Департамент транспорта и развития дорожно-транспортной инфраструктуры города Москвы,Западный административный округ,район Дорогомилово,"Российская Федерация, город Москва, внутригородская территория муниципальный округ Дорогомилово, площадь Европы, дом 1А",37.571088,55.743311
2566178211,"Станция №74, 50 кВт",Департамент транспорта и развития дорожно-транспортной инфраструктуры города Москвы,Западный административный округ,район Дорогомилово,"Российская Федерация, город Москва, внутригородская территория муниципальный округ Дорогомилово, площадь Европы, дом 1А",37.570948,55.743153
2566178212,"Станция №75, 50 кВт",Департамент транспорта и развития дорожно-транспортной инфраструктуры города Москвы,Западный административный округ,район Дорогомилово,"Российская Федерация, город Москва, внутригородская территория муниципальный округ Дорогомилово, площадь Европы, дом 1А",37.571189,55.743406
2566178213,"Станция №78, 50 кВт",Департамент транспорта и развития дорожно-транспортной инфраструктуры города Москвы,Северный административный округ,район Беговой,"Российская Федерация, город Москва, внутригородская территория муниципальный округ Беговой, улица Авиаконструктора Сухого, дом 1А, строение 1",37.542159,55.785205
2566178214,"Станция №79, 22 кВт",Департамент транспорта и развития дорожно-транспортной инфраструктуры города Москвы,Северо-Восточный административный округ,Бабушкинский район,"Российская Федерация, город Москва, внутригородская территория муниципальный округ Бабушкинский, улица Менжинского, дом 23, корпус 1",37.662035,55.869758
2566178215,"Станция №80, 22 кВт",Департамент транспорта и развития дорожно-транспортной инфраструктуры города Москвы,Юго-Восточный административный округ,район Люблино,"Российская Федерация, город Москва, внутригородская территория муниципальный округ Люблино, Цимлянская улица, дом 7, строение 4",37.767375,55.668741
2566178216,"Станция №81, 22 кВт",Департамент транспорта и развития дорожно-транспортной инфраструктуры города Москвы,Северо-Восточный административный округ,район Бибирево,"Российская Федерация, город Москва, внутригородская территория муниципальный округ Бибирево, Алтуфьевское шоссе, дом 82, строение 2",37.587709,55.895734
2566178218,"Станция №82, 22 кВт",Департамент транспорта и развития дорожно-транспортной инфраструктуры города Москвы,Южный административный округ,район Чертаново Южное,"Российская Федерация, город Москва, внутригородская территория муниципальный округ Чертаново Южное, Варшавское шоссе, дом 141Г",37.602059,55.591374
2566178219,"Станция №83, 22 кВт",Департамент транспорта и развития дорожно-транспортной инфраструктуры города Москвы,Западный административный округ,район Раменки,"Российская Федерация, город Москва, внутригородская территория муниципальный округ Академический, улица Кедрова, дом 26/22",37.502967,55.698007
2566178220,"Станция №84, 22 кВт",Департамент транспорта и развития дорожно-транспортной инфраструктуры города Москвы,Западный административный округ,район Тропарёво-Никулино,"город Москва, улица Покрышкина, дом 4",37.48057,55.665026
2566178222,"Станция №86, 22 кВт",Департамент транспорта и развития дорожно-транспортной инфраструктуры города Москвы,Юго-Западный административный округ,район Северное Бутово,"Российская Федерация, город Москва, внутригородская территория муниципальный округ Северное Бутово, улица Грина, дом 7",37.571871,55.567275
2566178223,"Станция №87, 22 кВт",Департамент транспорта и развития дорожно-транспортной инфраструктуры города Москвы,Юго-Западный административный округ,район Южное Бутово,"Российская Федерация, город Москва, внутригородская территория муниципальный округ Южное Бутово, улица Адмирала Руднева, дом 2",37.524907,55.544367
2566178224,"Станция №88, 22 кВт",Департамент транспорта и развития дорожно-транспортной инфраструктуры города Москвы,Восточный административный округ,район Новокосино,"Российская Федерация, город Москва, внутригородская территория муниципальный округ Новокосино, Новокосинская улица, дом 19",37.858407,55.739714
2566178227,"Станция №90, 22 кВт",Департамент транспорта и развития дорожно-транспортной инфраструктуры города Москвы,Юго-Восточный административный округ,район Люблино,"Российская Федерация, город Москва, внутригородская территория муниципальный округ Люблино, Новороссийская улица, дом 24, корпус 1",37.758256,55.67495
2566178229,"Станция №92, 22 кВт",Департамент транспорта и развития дорожно-транспортной инфраструктуры города Москвы,Западный административный округ,Можайский район,"Российская Федерация, город Москва, внутригородская территория муниципальный округ Можайский, улица Толбухина, дом 5, корпус 4",37.39953,55.71849
2566178230,"Станция №93, 22 кВт",Департамент транспорта и развития дорожно-транспортной инфраструктуры города Москвы,Западный административный округ,район Дорогомилово,"площадь Киевского Вокзала, з/у 2",37.568791,55.744534
2566178231,"Станция №94, 22 кВт",Департамент транспорта и развития дорожно-транспортной инфраструктуры города Москвы,Западный административный округ,район Дорогомилово,"площадь Киевского Вокзала, з/у 1",37.568885,55.744683
2566178232,"Станция №95, 22 кВт",Департамент транспорта и развития дорожно-транспортной инфраструктуры города Москвы,Юго-Восточный административный округ,Южнопортовый район,"Российская Федерация, город Москва, внутригородская территория муниципальный округ Южнопортовый, улица Петра Романова, дом 9",37.682267,55.707937
2566178233,"Станция №96, 22 кВт",Департамент транспорта и развития дорожно-транспортной инфраструктуры города Москвы,Юго-Восточный административный округ,район Выхино-Жулебино,"город Москва, Жулебинская улица, дом 16",37.852427,55.696598
2566178235,"Станция №97, 22 кВт",Департамент транспорта и развития дорожно-транспортной инфраструктуры города Москвы,Восточный административный округ,район Новогиреево,"Российская Федерация, город Москва, внутригородская территория муниципальный округ Новогиреево, Свободный проспект, дом 35А",37.81696,55.75059
2566178237,"Станция №99, 50 кВт",Департамент транспорта и развития дорожно-транспортной инфраструктуры города Москвы,Северо-Западный административный округ,район Южное Тушино,"Российская Федерация, город Москва, внутригородская территория муниципальный округ Южное Тушино, бульвар Яна Райниса, дом 1",37.437701,55.850325
2566178238,"Станция №101, 22 кВт",Департамент транспорта и развития дорожно-транспортной инфраструктуры города Москвы,Северо-Восточный административный округ,Останкинский район,"Российская Федерация, город Москва, внутригородская территория муниципальный округ Алексеевский, проспект Мира, дом 96, строение 6",37.63694,55.80964
2566178239,"Станция №102, 22 кВт",Департамент транспорта и развития дорожно-транспортной инфраструктуры города Москвы,Восточный административный округ,район Ивановское,"Российская Федерация, город Москва, внутригородская территория муниципальный округ Перово, шоссе Энтузиастов, дом 54",37.825707,55.774138
2566178240,"Станция №104, 22 кВт",Департамент транспорта и развития дорожно-транспортной инфраструктуры города Москвы,Юго-Восточный административный округ,Рязанский район,"Российская Федерация, город Москва, внутригородская территория муниципальный округ Рязанский, Рязанский проспект, дом 30, корпус 2",37.78481,55.71838
2566178241,"Станция №105, 22 кВт",Департамент транспорта и развития дорожно-транспортной инфраструктуры города Москвы,Северный административный округ,район Аэропорт,"Российская Федерация, город Москва, внутригородская территория муниципальный округ Аэропорт, улица Верхняя Масловка, дом 11",37.563087,55.792485
2566178242,"Станция №107, 22 кВт",Департамент транспорта и развития дорожно-транспортной инфраструктуры города Москвы,Южный административный округ,Даниловский район,"Российская Федерация, город Москва, внутригородская территория муниципальный округ Даниловский, 1-й Автозаводский проезд, дом 5",37.657506,55.704458
2566178244,"Станция №108, 50 кВт",Департамент транспорта и развития дорожно-транспортной инфраструктуры города Москвы,Юго-Восточный административный округ,район Лефортово,"город Москва, 1-я улица Энтузиастов, дом 3, строение 3",37.693496,55.747924
2566178245,"Станция №109, 22 кВт",Департамент транспорта и развития дорожно-транспортной инфраструктуры города Москвы,Западный административный округ,район Филёвский Парк,"Российская Федерация, город Москва, внутригородская территория муниципальный округ Филевский Парк, Береговой проезд, дом 5А, корпус 1",37.508764,55.754877
2566178246,"Станция №111, 22 кВт",Департамент транспорта и развития дорожно-транспортной инфраструктуры города Москвы,Северо-Западный административный округ,район Щукино,"Российская Федерация, город Москва, внутригородская территория муниципальный округ Щукино, Авиационная улица, дом 66",37.46091,55.80955
2566178247,"Станция №112, 22 кВт",Департамент транспорта и развития дорожно-транспортной инфраструктуры города Москвы,Западный административный округ,район Тропарёво-Никулино,"Российская Федерация, город Москва, внутригородская территория муниципальный округ Тропарево-Никулино, улица Покрышкина, дом 5",37.46979,55.66477
2566178248,"Станция №114, 22 кВт",Департамент транспорта и развития дорожно-транспортной инфраструктуры города Москвы,Северный административный округ,Хорошёвский район,"город Москва, Хорошёвское шоссе, дом 7, строение 2",37.53766,55.774572
2566178249,"Станция №126, 50 кВт",Департамент транспорта и развития дорожно-транспортной инфраструктуры города Москвы,Зеленоградский административный округ,район Силино,"город Москва, город Зеленоград, улица Конструктора Лукина, дом 14, строение 1",37.15795,56.007824
2566178250,"Станция №129, 22 кВт",Департамент транспорта и развития дорожно-транспортной инфраструктуры города Москвы,Зеленоградский административный округ,район Силино,"город Москва, город Зеленоград, улица Конструктора Лукина, дом 14, строение 1",37.158764,56.007509
2566178251,"Станция №130, 22 кВт",Департамент транспорта и развития дорожно-транспортной инфраструктуры города Москвы,Южный административный округ,Даниловский район,"Российская Федерация, город Москва, внутригородская территория муниципальный округ Даниловский, Автозаводская улица, дом 5",37.661939,55.708811
2566178253,"Станция №140, 50 кВт",Департамент транспорта и развития дорожно-транспортной инфраструктуры города Москвы,Северо-Восточный административный округ,Останкинский район,"Российская Федерация, город Москва, внутригородская территория муниципальный округ Останкинский, проспект Мира, дом 119, строение 70",37.6371,55.830935
2566178254,"Станция №159, 22 кВт",Департамент транспорта и развития дорожно-транспортной инфраструктуры города Москвы,Центральный административный округ,Тверской район,"город Москва, Леонтьевский переулок, дом 25",37.60689,55.7618
2566178255,"Станция №162, 22 кВт",Департамент транспорта и развития дорожно-транспортной инфраструктуры города Москвы,Центральный административный округ,Мещанский район,"Российская Федерация, город Москва, внутригородская территория муниципальный округ Мещанский, улица Щепкина, дом 3, строение 3",37.62879,55.77422
2566178256,"Станция №164, 22 кВт",Департамент транспорта и развития дорожно-транспортной инфраструктуры города Москвы,Центральный административный округ,Мещанский район,"Российская Федерация, город Москва, внутригородская территория муниципальный округ Мещанский, улица Верземнека, дом 6",37.629238,55.791388
2566178257,"Станция №180, 22 кВт",Департамент транспорта и развития дорожно-транспортной инфраструктуры города Москвы,Центральный административный округ,район Якиманка,"город Москва, Якиманский переулок, дом 6, строение 1",37.609583,55.7335
2566178258,"Станция №181, 22 кВт",Департамент транспорта и развития дорожно-транспортной инфраструктуры города Москвы,Центральный административный округ,район Якиманка,"город Москва, Якиманский переулок, дом 6, строение 1",37.609596,55.733539
2566178259,"Станция №192, 22 кВт",Департамент транспорта и развития дорожно-транспортной инфраструктуры города Москвы,Центральный административный округ,район Хамовники,"город Москва, Олсуфьевский переулок, дом 10, строение 1",37.578912,55.733981
2566178260,"Станция №193, 22 кВт",Департамент транспорта и развития дорожно-транспортной инфраструктуры города Москвы,Центральный административный округ,район Хамовники,"город Москва, Олсуфьевский переулок, дом 10, строение 1",37.579011,55.733909
2566178261,"Станция №195, 22 кВт",Департамент транспорта и развития дорожно-транспортной инфраструктуры города Москвы,Центральный административный округ,Басманный район,"Российская Федерация, город Москва, внутригородская территория муниципальный округ Басманный, Большой Казённый переулок, дом 6, строение 1",37.655039,55.760043
2566178263,"Станция №218, 22 кВт",Департамент транспорта и развития дорожно-транспортной инфраструктуры города Москвы,Центральный административный округ,Мещанский район,"Российская Федерация, город Москва, внутригородская территория муниципальный округ Мещанский, улица Щепкина, дом 49А",37.629212,55.782772
2566178264,"Станция №230, 22 кВт",Департамент транспорта и развития дорожно-транспортной инфраструктуры города Москвы,Юго-Западный административный округ,Ломоносовский район,"Российская Федерация, город Москва, внутригородская территория муниципальный округ Ломоносовский, улица Академика Пилюгина, дом 8, корпус 2",37.541126,55.670519
2566178265,"Станция №231, 22 кВт",Департамент транспорта и развития дорожно-транспортной инфраструктуры города Москвы,Юго-Западный административный округ,Обручевский район,"город Москва, улица Островитянова, дом 9, корпус 1, строение 1",37.49632,55.64313
2566641711,"Станция №232, 22 кВт",Департамент транспорта и развития дорожно-транспортной инфраструктуры города Москвы,Северо-Восточный административный округ,Алексеевский район,"Российская Федерация, город Москва, внутригородская территория муниципальный округ Алексеевский, улица Космонавтов, дом 10, корпус 1",37.65031,55.82108
2566641713,"Станция №233, 22 кВт",Департамент транспорта и развития дорожно-транспортной инфраструктуры города Москвы,Северо-Западный административный округ,район Покровское-Стрешнево,"Российская Федерация, город Москва, внутригородская территория муниципальный округ Покровское-Стрешнево, улица Свободы, дом 6/3",37.45212,55.82572
2566641714,"Станция №234, 22 кВт",Департамент транспорта и развития дорожно-транспортной инфраструктуры города Москвы,Северный административный округ,район Ховрино,"Российская Федерация, город Москва, внутригородская территория муниципальный округ Ховрино, улица Ляпидевского, дом 2",37.49814,55.854737
2566641715,"Станция №235, 22 кВт",Департамент транспорта и развития дорожно-транспортной инфраструктуры города Москвы,Северный административный округ,район Левобережный,"Российская Федерация, город Москва, внутригородская территория муниципальный округ Левобережный, Валдайский проезд, дом 6",37.46804,55.86512
2566641717,"Станция №237, 22 кВт",Департамент транспорта и развития дорожно-транспортной инфраструктуры города Москвы,Северный административный округ,Савёловский район,"Российская Федерация, город Москва, внутригородская территория муниципальный округ Савеловский, Полтавская улица, дом 6",37.57355,55.79558
2566641718,"Станция №238, 22 кВт",Департамент транспорта и развития дорожно-транспортной инфраструктуры города Москвы,Северный административный округ,район Аэропорт,"Российская Федерация, город Москва, внутригородская территория муниципальный округ Аэропорт, улица Усиевича, дом 29, строение 2",37.51932,55.8066
2566641719,"Станция №239, 22 кВт",Департамент транспорта и развития дорожно-транспортной инфраструктуры города Москвы,Северный административный округ,Хорошёвский район,"Российская Федерация, город Москва, внутригородская территория муниципальный округ Хорошевский, 4-я Магистральная улица, дом 11",37.51679,55.770304
2566641720,"Станция №240, 22 кВт",Департамент транспорта и развития дорожно-транспортной инфраструктуры города Москвы,Северо-Западный административный округ,район Щукино,"Российская Федерация, город Москва, внутригородская территория муниципальный округ Щукино, улица Расплетина, дом 22, корпус 1",37.483363,55.794307
2566641721,"Станция №241, 22 кВт",Департамент транспорта и развития дорожно-транспортной инфраструктуры города Москвы,Северный административный округ,Войковский район,"Российская Федерация, город Москва, внутригородская территория муниципальный округ Войковский, улица Адмирала Макарова, дом 10, строение 1",37.48825,55.83754
2566641722,"Станция №242, 22 кВт",Департамент транспорта и развития дорожно-транспортной инфраструктуры города Москвы,Северный административный округ,Головинский район,"Российская Федерация, город Москва, внутригородская территория муниципальный округ Головинский, Ленинградское шоссе, дом 58, корпус 17",37.482372,55.844093
2566641723,"Станция №244, 22 кВт",Департамент транспорта и развития дорожно-транспортной инфраструктуры города Москвы,Северо-Западный административный округ,район Строгино,"город Москва, Таллинская улица, дом 19, корпус 1, строение 1",37.404253,55.799892
2566641724,"Станция №245, 22 кВт",Департамент транспорта и развития дорожно-транспортной инфраструктуры города Москвы,Западный административный округ,район Кунцево,"Российская Федерация, город Москва, внутригородская территория муниципальный округ Кунцево, Бобруйская улица, дом 3",37.40259,55.73571
2566641725,"Станция №246, 22 кВт",Департамент транспорта и развития дорожно-транспортной инфраструктуры города Москвы,Западный административный округ,район Крылатское,"город Москва, улица Крылатские Холмы, дом 33, корпус 1, строение 1",37.419579,55.757423
2566641726,"Станция №248, 22 кВт",Департамент транспорта и развития дорожно-транспортной инфраструктуры города Москвы,Центральный административный округ,Мещанский район,"Российская Федерация, город Москва, внутригородская территория муниципальный округ Мещанский, Трифоновская улица, дом 49",37.62737,55.78891
2566641727,"Станция №251, 22 кВт",Департамент транспорта и развития дорожно-транспортной инфраструктуры города Москвы,Центральный административный округ,Басманный район,"Российская Федерация, город Москва, внутригородская территория муниципальный округ Басманный, Хомутовский тупик, дом 4, корпус 1",37.65454,55.76648
2566641728,"Станция №254, 50 кВт",Департамент транспорта и развития дорожно-транспортной инфраструктуры города Москвы,Центральный административный округ,район Хамовники,"Российская Федерация, город Москва, внутригородская территория муниципальный округ Хамовники, улица Плющиха, дом 42",37.577222,55.741838
2566641730,"Станция №255, 50 кВт",Департамент транспорта и развития дорожно-транспортной инфраструктуры города Москвы,Северный административный округ,район Сокол,"Российская Федерация, город Москва, внутригородская территория муниципальный округ Сокол, улица Алабяна, дом 19, корпус 1",37.50303,55.79877
2566641731,"Станция №256, 22 кВт",Департамент транспорта и развития дорожно-транспортной инфраструктуры города Москвы,Северный административный округ,район Беговой,"Российская Федерация, город Москва, внутригородская территория муниципальный округ Беговой, Скаковая улица, дом 34, корпус 1",37.5729,55.77747
2566641732,"Станция №257, 22 кВт",Департамент транспорта и развития дорожно-транспортной инфраструктуры города Москвы,Северный административный округ,район Сокол,"Российская Федерация, город Москва, внутригородская территория муниципальный округ Сокол, улица Зорге, дом 28, корпус 1",37.506559,55.791516
2566641733,"Станция №258, 22 кВт",Департамент транспорта и развития дорожно-транспортной инфраструктуры города Москвы,Северный административный округ,Войковский район,"Российская Федерация, город Москва, внутригородская территория муниципальный округ Войковский, улица Зои и Александра Космодемьянских, дом 11-15, строение 1А",37.51402,55.821959
2566641734,"Станция №259, 50 кВт",Департамент транспорта и развития дорожно-транспортной инфраструктуры города Москвы,Северный административный округ,Тимирязевский район,"Российская Федерация, город Москва, внутригородская территория муниципальный округ Тимирязевский, проезд Соломенной Сторожки, дом 12",37.562728,55.808248
2566641735,"Станция №260, 22 кВт",Департамент транспорта и развития дорожно-транспортной инфраструктуры города Москвы,Западный административный округ,район Раменки,"Российская Федерация, город Москва, внутригородская территория муниципальный округ Раменки, улица Пырьева, дом 5А",37.526749,55.725636
2566641736,"Станция №262, 22 кВт",Департамент транспорта и развития дорожно-транспортной инфраструктуры города Москвы,Западный административный округ,район Раменки,"город Москва, поселение Вороновское, территория СНТ ""Дружба-ЗИО"", владение 19, строение 1",37.522314,55.712587
2566641737,"Станция №263, 22 кВт",Департамент транспорта и развития дорожно-транспортной инфраструктуры города Москвы,Западный административный округ,район Проспект Вернадского,"Российская Федерация, город Москва, внутригородская территория муниципальный округ Проспект Вернадского, улица Удальцова, дом 5, корпус 3",37.516517,55.672407
2566641738,"Станция №264, 50 кВт",Департамент транспорта и развития дорожно-транспортной инфраструктуры города Москвы,Южный административный округ,Донской район,"Российская Федерация, город Москва, внутригородская территория муниципальный округ Гагаринский, Ленинский проспект, дом 36",37.585595,55.709411
2566641739,"Станция №265, 22 кВт",Департамент транспорта и развития дорожно-транспортной инфраструктуры города Москвы,Юго-Западный административный округ,Академический район,"Российская Федерация, город Москва, внутригородская территория муниципальный округ Академический, улица Кедрова, дом 4, корпус 1",37.56405,55.68644
2566641741,"Станция №266, 22 кВт",Департамент транспорта и развития дорожно-транспортной инфраструктуры города Москвы,Юго-Западный административный округ,Академический район,"Российская Федерация, город Москва, внутригородская территория муниципальный округ Академический, Новочерёмушкинская улица, дом 23, корпус 1",37.579322,55.68157
2566641742,"Станция №267, 22 кВт",Департамент транспорта и развития дорожно-транспортной инфраструктуры города Москвы,Юго-Западный административный округ,район Котловка,"Российская Федерация, город Москва, внутригородская территория муниципальный округ Котловка, улица Дмитрия Ульянова, дом 51",37.596053,55.680386
2566641743,"Станция №268, 22 кВт",Департамент транспорта и развития дорожно-транспортной инфраструктуры города Москвы,Юго-Западный административный округ,район Черёмушки,"Российская Федерация, город Москва, внутригородская территория муниципальный округ Черемушки, Севастопольский проспект, дом 28Г",37.577133,55.664352
2566641744,"Станция №269, 22 кВт",Департамент транспорта и развития дорожно-транспортной инфраструктуры города Москвы,Юго-Западный административный округ,район Зюзино,"Российская Федерация, город Москва, внутригородская территория муниципальный округ Зюзино, Одесская улица, дом 6, строение 4",37.59513,55.66016
2566641746,"Станция №271, 22 кВт",Департамент транспорта и развития дорожно-транспортной инфраструктуры города Москвы,Южный административный округ,Донской район,"Российская Федерация, город Москва, внутригородская территория муниципальный округ Донской, Загородное шоссе, дом 9, корпус 3",37.60789,55.69395
2566641747,"Станция №273, 22 кВт",Департамент транспорта и развития дорожно-транспортной инфраструктуры города Москвы,Южный административный округ,район Нагатино-Садовники,"Российская Федерация, город Москва, внутригородская территория муниципальный округ Нагатино-Садовники, 1-й Нагатинский проезд, дом 11, корпус 3",37.632887,55.677053
2566641748,"Станция №274, 22 кВт",Департамент транспорта и развития дорожно-транспортной инфраструктуры города Москвы,Южный административный округ,район Нагатино-Садовники,"Российская Федерация, город Москва, внутригородская территория муниципальный округ Нагатино-Садовники, проспект Андропова, дом 42, корпус 1",37.66172,55.67149
2566641749,"Станция №275, 22 кВт",Департамент транспорта и развития дорожно-транспортной инфраструктуры города Москвы,Южный административный округ,район Нагатинский Затон,"Российская Федерация, город Москва, внутригородская территория муниципальный округ Нагатинский Затон, Нагатинская набережная, дом 56",37.68876,55.69068
2566641750,"Станция №276, 22 кВт",Департамент транспорта и развития дорожно-транспортной инфраструктуры города Москвы,Южный административный округ,район Нагатинский Затон,"город Москва, улица Новинки, дом 27, строение 1",37.67639,55.67627
2566641751,"Станция №277, 22 кВт",Департамент транспорта и развития дорожно-транспортной инфраструктуры города Москвы,Южный административный округ,район Нагатинский Затон,"Российская Федерация, город Москва, внутригородская территория муниципальный округ Нагатинский Затон, Судостроительная улица, дом 40",37.67356,55.686505
2566641752,"Станция №279, 22 кВт",Департамент транспорта и развития дорожно-транспортной инфраструктуры города Москвы,Юго-Восточный административный округ,Южнопортовый район,"Российская Федерация, город Москва, внутригородская территория муниципальный округ Южнопортовый, Волгоградский проспект, дом 32, корпус 2",37.689381,55.724203
2566641753,"Станция №280, 50 кВт",Департамент транспорта и развития дорожно-транспортной инфраструктуры города Москвы,Юго-Восточный административный округ,Нижегородский район,"Российская Федерация, город Москва, внутригородская территория муниципальный округ Нижегородский, Рязанский проспект, дом 2, корпус 2",37.73817,55.7309
2566641754,"Станция №281, 22 кВт",Департамент транспорта и развития дорожно-транспортной инфраструктуры города Москвы,Центральный административный округ,Таганский район,"Российская Федерация, город Москва, внутригородская территория муниципальный округ Таганский, Большая Калитниковская улица, дом 42А",37.68786,55.73652
2566641755,"Станция №283, 22 кВт",Департамент транспорта и развития дорожно-транспортной инфраструктуры города Москвы,Юго-Западный административный округ,район Северное Бутово,"Российская Федерация, город Москва, внутригородская территория муниципальный округ Северное Бутово, улица Грина, дом 24",37.572033,55.567236
2566641756,"Станция №284, 22 кВт",Департамент транспорта и развития дорожно-транспортной инфраструктуры города Москвы,Юго-Западный административный округ,район Южное Бутово,"Российская Федерация, город Москва, внутригородская территория муниципальный округ Южное Бутово, Скобелевская улица, дом 20",37.5557,55.546758
2566641757,"Станция №285, 22 кВт",Департамент транспорта и развития дорожно-транспортной инфраструктуры города Москвы,Северо-Западный административный округ,район Куркино,"Российская Федерация, город Москва, внутригородская территория муниципальный округ Куркино, Родионовская улица, дом 8",37.39633,55.89388
2566641758,"Станция №286, 22 кВт",Департамент транспорта и развития дорожно-транспортной инфраструктуры города Москвы,Западный административный округ,район Кунцево,"город Москва, Ярцевская улица, дом 27, корпус 8, строение 1",37.41284,55.74314
2566641759,"Станция №287, 22 кВт",Департамент транспорта и развития дорожно-транспортной инфраструктуры города Москвы,Северо-Западный административный округ,район Северное Тушино,"Российская Федерация, город Москва, внутригородская территория муниципальный округ Северное Тушино, улица Вилиса Лациса, дом 27, корпус 2",37.416582,55.860803
2566641760,"Станция №288, 22 кВт",Департамент транспорта и развития дорожно-транспортной инфраструктуры города Москвы,Западный административный округ,район Очаково-Матвеевское,"Российская Федерация, город Москва, внутригородская территория муниципальный округ Очаково-Матвеевское, 1-й Очаковский переулок, дом 10",37.46028,55.68438
2566668082,"Станция №289, 22 кВт",Департамент транспорта и развития дорожно-транспортной инфраструктуры города Москвы,Северо-Западный административный округ,район Куркино,"город Москва, улица Соловьиная Роща, дом 8, корпус 1",37.399049,55.891935
2566668084,"Станция №290, 22 кВт",Департамент транспорта и развития дорожно-транспортной инфраструктуры города Москвы,Северо-Западный административный округ,район Куркино,"Российская Федерация, город Москва, внутригородская территория муниципальный округ Куркино, Воротынская улица, дом 18",37.388173,55.889606
2566668085,"Станция №291, 22 кВт",Департамент транспорта и развития дорожно-транспортной инфраструктуры города Москвы,Северо-Западный административный округ,район Куркино,"город Москва, Соколово-Мещерская улица, дом 29, строение 2",37.385353,55.905454
2566668086,"Станция №292, 50 кВт",Департамент транспорта и развития дорожно-транспортной инфраструктуры города Москвы,Центральный административный округ,Мещанский район,"Российская Федерация, город Москва, внутригородская территория муниципальный округ Мещанский, Последний переулок, дом 3",37.62605,55.76978
2566668088,"Станция №294, 22 кВт",Департамент транспорта и развития дорожно-транспортной инфраструктуры города Москвы,Центральный административный округ,Мещанский район,"Российская Федерация, город Москва, внутригородская территория муниципальный округ Мещанский, Слесарный переулок, дом 3",37.6369,55.78413
2566668089,"Станция №295, 50 кВт",Департамент транспорта и развития дорожно-транспортной инфраструктуры города Москвы,Центральный административный округ,Таганский район,"Российская Федерация, город Москва, внутригородская территория муниципальный округ Таганский, Большой Дровяной переулок, дом 18",37.658371,55.74566
2566668091,"Станция №296, 22 кВт",Департамент транспорта и развития дорожно-транспортной инфраструктуры города Москвы,Юго-Восточный административный округ,район Лефортово,"Российская Федерация, город Москва, внутригородская территория муниципальный округ Лефортово, Авиамоторная улица, дом 4, корпус 2",37.7138,55.7603
2566668092,"Станция №297, 22 кВт",Департамент транспорта и развития дорожно-транспортной инфраструктуры города Москвы,Восточный административный округ,район Перово,"Российская Федерация, город Москва, внутригородская территория муниципальный округ Перово, улица Плеханова, дом 26, корпус 1",37.768196,55.740901
2566668093,"Станция №298, 22 кВт",Департамент транспорта и развития дорожно-транспортной инфраструктуры города Москвы,Центральный административный округ,Красносельский район,"Российская Федерация, город Москва, внутригородская территория муниципальный округ Красносельский, Даев переулок, дом 14",37.637516,55.770014
2566668094,"Станция №299, 22 кВт",Департамент транспорта и развития дорожно-транспортной инфраструктуры города Москвы,Юго-Западный административный округ,Ломоносовский район,"Российская Федерация, город Москва, внутригородская территория муниципальный округ Ломоносовский, улица Академика Пилюгина, дом 18",37.53384,55.668452
2566668095,"Станция №300, 22 кВт",Департамент транспорта и развития дорожно-транспортной инфраструктуры города Москвы,Центральный административный округ,район Якиманка,"Российская Федерация, город Москва, внутригородская территория муниципальный округ Якиманка, Берсеневская набережная, дом 18-20-22, строение 2",37.610572,55.744757
2566668097,"Станция №302, 22 кВт",Департамент транспорта и развития дорожно-транспортной инфраструктуры города Москвы,Центральный административный округ,Мещанский район,"город Москва, проспект Мира, дом 26, строение 1",37.635694,55.777143
2566668098,"Станция №313, 50 кВт",Департамент транспорта и развития дорожно-транспортной инфраструктуры города Москвы,Центральный административный округ,Тверской район,"Российская Федерация, город Москва, внутригородская территория муниципальный округ Тверской, Леонтьевский переулок, дом 22",37.606863,55.760883
2566668099,"Станция №314, 50 кВт",Департамент транспорта и развития дорожно-транспортной инфраструктуры города Москвы,Центральный административный округ,Тверской район,"Российская Федерация, город Москва, внутригородская территория муниципальный округ Тверской, Леонтьевский переулок, дом 22",37.607,55.76099
2566668100,"Станция №318, 22 кВт",Департамент транспорта и развития дорожно-транспортной инфраструктуры города Москвы,Западный административный округ,район Фили-Давыдково,"город Москва, Кременчугская улица, дом 5, корпус 1",37.46197,55.72214
2566668101,"Станция №321, 50 кВт",Департамент транспорта и развития дорожно-транспортной инфраструктуры города Москвы,Северо-Восточный административный округ,Останкинский район,"Российская Федерация, город Москва, внутригородская территория муниципальный округ Останкинский, Хованская улица, дом 18",37.622983,55.827112
2566668102,"Станция №322, 22 кВт",Департамент транспорта и развития дорожно-транспортной инфраструктуры города Москвы,Южный административный округ,район Бирюлёво Восточное,"Российская Федерация, город Москва, внутригородская территория муниципальный округ Бирюлево Восточное, Липецкая улица, дом 20",37.672406,55.593619
2566668103,"Станция №327, 22 кВт",Департамент транспорта и развития дорожно-транспортной инфраструктуры города Москвы,Северо-Восточный административный округ,Останкинский район,"Российская Федерация, город Москва, внутригородская территория муниципальный округ Останкинский, Хованская улица, дом 22, строение 2",37.623075,55.82943
2566668105,"Станция №331, 22 кВт",Департамент транспорта и развития дорожно-транспортной инфраструктуры города Москвы,Юго-Западный административный округ,район Зюзино,"Российская Федерация, город Москва, внутригородская территория муниципальный округ Зюзино, Одесская улица, дом 6, строение 4",37.595101,55.660125
2566668110,"Станция №345, 22 кВт",Департамент транспорта и развития дорожно-транспортной инфраструктуры города Москвы,Северо-Западный административный округ,район Митино,"Российская Федерация, город Москва, внутригородская территория муниципальный округ Митино, Дубравная улица, дом 35",37.357742,55.84459
2566668111,"Станция №350, 50 кВт",Департамент транспорта и развития дорожно-транспортной инфраструктуры города Москвы,Западный административный округ,Можайский район,"Российская Федерация, город Москва, внутригородская территория муниципальный округ Можайский, улица Вересаева, дом 10",37.445037,55.719468
2566668112,"Станция №354, 50 кВт",Департамент транспорта и развития дорожно-транспортной инфраструктуры города Москвы,Центральный административный округ,район Хамовники,"Российская Федерация, город Москва, внутригородская территория муниципальный округ Хамовники, 1-й Вражский переулок, дом 4",37.57386,55.739869
2566668113,"Станция №355, 22 кВт",Департамент транспорта и развития дорожно-транспортной инфраструктуры города Москвы,Центральный административный округ,Мещанский район,"Российская Федерация, город Москва, внутригородская территория муниципальный округ Мещанский, улица Гиляровского, дом 6, строение 2",37.630518,55.775211
2566668114,"Станция №357, 50 кВт",Департамент транспорта и развития дорожно-транспортной инфраструктуры города Москвы,Центральный административный округ,Пресненский район,"Российская Федерация, город Москва, внутригородская территория муниципальный округ Пресненский, Шмитовский проезд, дом 28",37.53865,55.75592
2566668115,"Станция №359, 22 кВт",Департамент транспорта и развития дорожно-транспортной инфраструктуры города Москвы,Юго-Восточный административный округ,район Марьино,"Российская Федерация, город Москва, внутригородская территория муниципальный округ Марьино, Братиславская улица, дом 1",37.753437,55.666607
2566668116,"Станция №364, 22 кВт",Департамент транспорта и развития дорожно-транспортной инфраструктуры города Москвы,Восточный административный округ,район Соколиная Гора,"Российская Федерация, город Москва, внутригородская территория муниципальный округ Соколиная Гора, Фортунатовская улица, дом 31/35",37.73876,55.78561
2566668117,"Станция №365, 50 кВт",Департамент транспорта и развития дорожно-транспортной инфраструктуры города Москвы,Центральный административный округ,Мещанский район,"Российская Федерация, город Москва, внутригородская территория муниципальный округ Мещанский, Большой Сухаревский переулок, дом 24",37.63048,55.77072
2566668118,"Станция №367, 22 кВт",Департамент транспорта и развития дорожно-транспортной инфраструктуры города Москвы,Юго-Восточный административный округ,Рязанский район,"Российская Федерация, город Москва, внутригородская территория муниципальный округ Рязанский, Окская улица, дом 42/1, корпус 1",37.774656,55.716793
2566668120,"Станция №368, 50 кВт",Департамент транспорта и развития дорожно-транспортной инфраструктуры города Москвы,Северо-Восточный административный округ,Останкинский район,"город Москва, проспект Мира, дом 119, строение 232",37.628536,55.837407
2566668121,"Станция №375, 50 кВт",Департамент транспорта и развития дорожно-транспортной инфраструктуры города Москвы,Северный административный округ,Хорошёвский район,"Российская Федерация, город Москва, внутригородская территория муниципальный округ Хорошевский, улица Полины Осипенко, дом 18, корпус 1",37.52972,55.77994
2566668123,"Станция №377, 22 кВт",Департамент транспорта и развития дорожно-транспортной инфраструктуры города Москвы,Юго-Восточный административный округ,район Кузьминки,"Российская Федерация, город Москва, внутригородская территория муниципальный округ Кузьминки, улица Академика Скрябина, дом 30, корпус 1",37.79311,55.70331
2566668125,"Станция №380, 22 кВт",Департамент транспорта и развития дорожно-транспортной инфраструктуры города Москвы,Южный административный округ,район Чертаново Северное,"Российская Федерация, город Москва, внутригородская территория муниципальный округ Чертаново Северное, Кировоградская улица, дом 4, корпус 2",37.61274,55.63036
2566668126,"Станция №382, 50 кВт",Департамент транспорта и развития дорожно-транспортной инфраструктуры города Москвы,Северо-Западный административный округ,район Хорошёво-Мнёвники,"Российская Федерация, город Москва, внутригородская территория муниципальный округ Хорошево-Мневники, Карамышевская набережная, дом 18, корпус 1",37.48038,55.76956
2566668127,"Станция №386, 22 кВт",Департамент транспорта и развития дорожно-транспортной инфраструктуры города Москвы,Северный административный округ,район Западное Дегунино,"Российская Федерация, город Москва, внутригородская территория муниципальный округ Западное Дегунино, Дегунинская улица, дом 1, корпус 1",37.54094,55.86304
2566668128,"Станция №390, 22 кВт",Департамент транспорта и развития дорожно-транспортной инфраструктуры города Москвы,Восточный административный округ,район Богородское,"бульвар Маршала Рокоссовского, дом 37",37.71296,55.8176
2566668129,"Станция №391, 22 кВт",Департамент транспорта и развития дорожно-транспортной инфраструктуры города Москвы,Северо-Восточный административный округ,район Северное Медведково,"Российская Федерация, город Москва, внутригородская территория муниципальный округ Северное Медведково, улица Грекова, дом 22",37.66238,55.89173
2566668130,"Станция №392, 22 кВт",Департамент транспорта и развития дорожно-транспортной инфраструктуры города Москвы,Северный административный округ,район Ховрино,"Российская Федерация, город Москва, внутригородская территория муниципальный округ Ховрино, Фестивальная улица, дом 8, строение 1",37.49269,55.859236
2566668131,"Станция №393, 22 кВт",Департамент транспорта и развития дорожно-транспортной инфраструктуры города Москвы,Юго-Восточный административный округ,район Марьино,"Российская Федерация, город Москва, внутригородская территория муниципальный округ Марьино, Братиславская улица, дом 22",37.761121,55.655629
2566668132,"Станция №394, 22 кВт",Департамент транспорта и развития дорожно-транспортной инфраструктуры города Москвы,Юго-Восточный административный округ,Южнопортовый район,"Российская Федерация, город Москва, внутригородская территория муниципальный округ Южнопортовый, Шарикоподшипниковская улица, дом 13А",37.67766,55.71694
2566668133,"Станция №395, 22 кВт",Департамент транспорта и развития дорожно-транспортной инфраструктуры города Москвы,Южный административный округ,район Братеево,"Российская Федерация, город Москва, внутригородская территория муниципальный округ Братеево, улица Борисовские Пруды, дом 14, корпус 5",37.745889,55.632359
2566668134,"Станция №396, 22 кВт",Департамент транспорта и развития дорожно-транспортной инфраструктуры города Москвы,Юго-Восточный административный округ,район Марьино,"Российская Федерация, город Москва, внутригородская территория муниципальный округ Марьино, улица Перерва, дом 43, корпус 1",37.75177,55.66059
2566668135,"Станция №397, 22 кВт",Департамент транспорта и развития дорожно-транспортной инфраструктуры города Москвы,Южный административный округ,Нагорный район,"Российская Федерация, город Москва, внутригородская территория муниципальный округ Нагорный, Чонгарский бульвар, дом 7",37.613137,55.651546
2566668136,"Станция №398, 22 кВт",Департамент транспорта и развития дорожно-транспортной инфраструктуры города Москвы,Западный административный округ,район Кунцево,"Российская Федерация, город Москва, внутригородская территория муниципальный округ Кунцево, Истринская улица, дом 10, корпус 1",37.433899,55.737794
2566668137,"Станция №404, 22 кВт",Департамент транспорта и развития дорожно-транспортной инфраструктуры города Москвы,Северо-Восточный административный округ,район Отрадное,"Российская Федерация, город Москва, внутригородская территория муниципальный округ Отрадное, проезд Якушкина, дом 1",37.60762,55.85789
2566668138,"Станция №405, 22 кВт",Департамент транспорта и развития дорожно-транспортной инфраструктуры города Москвы,Восточный административный округ,район Преображенское,"город Москва, Преображенская площадь, дом 6, строение 1",37.71175,55.79506
2566668139,"Станция №406, 22 кВт",Департамент транспорта и развития дорожно-транспортной инфраструктуры города Москвы,Южный административный округ,район Чертаново Центральное,"Российская Федерация, город Москва, внутригородская территория муниципальный округ Чертаново Центральное, Чертановская улица, дом 48А",37.59027,55.60753
2566668140,"Станция №409, 22 кВт",Департамент транспорта и развития дорожно-транспортной инфраструктуры города Москвы,Западный административный округ,район Очаково-Матвеевское,"Российская Федерация, город Москва, внутригородская территория муниципальный округ Очаково-Матвеевское, Нежинская улица, дом 5, корпус 2",37.474247,55.714405
2566668141,"Станция №410, 22 кВт",Департамент транспорта и развития дорожно-транспортной инфраструктуры города Москвы,Южный административный округ,район Чертаново Южное,"Российская Федерация, город Москва, внутригородская территория муниципальный округ Чертаново Южное, Варшавское шоссе, дом 152, корпус 1",37.598254,55.588908
2566668143,"Станция №412, 22 кВт",Департамент транспорта и развития дорожно-транспортной инфраструктуры города Москвы,Северный административный округ,район Левобережный,"Российская Федерация, город Москва, внутригородская территория муниципальный округ Левобережный, Ленинградское шоссе, дом 130, корпус 1, строение 1",37.463139,55.870602
2566668146,"Станция №416, 50 кВт",Департамент транспорта и развития дорожно-транспортной инфраструктуры города Москвы,Западный административный округ,район Филёвский Парк,"Российская Федерация, город Москва, внутригородская территория муниципальный округ Филевский Парк, улица Василисы Кожиной, дом 12",37.498597,55.736161
2566668148,"Станция №745, 50 кВт",Департамент транспорта и развития дорожно-транспортной инфраструктуры города Москвы,Северо-Восточный административный округ,Останкинский район,"город Москва, проспект Мира, дом 119, строение 191",37.626674,55.841484
2566668202,"Станция №335, 22 кВт",Департамент транспорта и развития дорожно-транспортной инфраструктуры города Москвы,Центральный административный округ,район Хамовники,"Российская Федерация, город Москва, внутригородская территория муниципальный округ Хамовники, улица Ефремова, дом 10, корпус 1",37.5761,55.72557
2566668214,"Станция №343, 22 кВт",Департамент транспорта и развития дорожно-транспортной инфраструктуры города Москвы,Северо-Восточный административный округ,район Марьина Роща,"Российская Федерация, город Москва, внутригородская территория муниципальный округ Марьина Роща, 9-й проезд Марьиной Рощи, дом 6, строение 1",37.61438,55.80149
2566668228,"Станция №344, 22 кВт",Департамент транспорта и развития дорожно-транспортной инфраструктуры города Москвы,Северо-Западный административный округ,район Митино,"Российская Федерация, город Москва, внутригородская территория муниципальный округ Митино, улица Барышиха, дом 40, корпус 1",37.342769,55.853097
2566668248,"Станция №376, 22 кВт",Департамент транспорта и развития дорожно-транспортной инфраструктуры города Москвы,Юго-Восточный административный округ,район Кузьминки,"Российская Федерация, город Москва, внутригородская территория муниципальный округ Кузьминки, Волгоградский проспект, дом 116, корпус 1",37.777961,55.702149
2577989255,"Станция №173, 22 кВт",Департамент транспорта и развития дорожно-транспортной инфраструктуры города Москвы,Центральный административный округ,Мещанский район,"Российская Федерация, город Москва, внутригородская территория муниципальный округ Мещанский, Большая Переяславская улица, дом 17",37.639961,55.788152
2577989322,"Станция №328, 50 кВт",Департамент транспорта и развития дорожно-транспортной инфраструктуры города Москвы,Центральный административный округ,район Замоскворечье,"Российская Федерация, город Москва, внутригородская территория муниципальный округ Замоскворечье, Космодамианская набережная, дом 4/22, корпус А",37.640884,55.744007
2577989474,"Станция №401, 22 кВт",Департамент транспорта и развития дорожно-транспортной инфраструктуры города Москвы,Западный административный округ,район Тропарёво-Никулино,"Российская Федерация, город Москва, внутригородская территория муниципальный округ Тропарево-Никулино, проспект Вернадского, дом 102А",37.475736,55.647186
2617438686,"Станция №466, 60 кВт",Департамент транспорта и развития дорожно-транспортной инфраструктуры города Москвы,Северо-Восточный административный округ,район Бибирево,"Российская Федерация, город Москва, внутригородская территория муниципальный округ Бибирево, улица Пришвина, дом 13",37.600164,55.887995
2617438700,"Станция №323, 22 кВт",Департамент транспорта и развития дорожно-транспортной инфраструктуры города Москвы,Южный административный округ,район Нагатинский Затон,"Российская Федерация, город Москва, внутригородская территория муниципальный округ Нагатинский Затон, проспект Андропова, дом 31, корпус 3",37.663725,55.674884
2617438701,"Станция №340, 22 кВт",Департамент транспорта и развития дорожно-транспортной инфраструктуры города Москвы,Юго-Восточный административный округ,район Кузьминки,"Российская Федерация, город Москва, внутригородская территория муниципальный округ Кузьминки, улица Юных Ленинцев, дом 47, корпус 2",37.756069,55.701173
2617438702,"Станция №341, 22 кВт",Департамент транспорта и развития дорожно-транспортной инфраструктуры города Москвы,Южный административный округ,район Москворечье-Сабурово,"Российская Федерация, город Москва, внутригородская территория муниципальный округ Москворечье-Сабурово, Каширское шоссе, дом 43, корпус 2, строение 3",37.66367,55.6486
2617438703,"Станция №103, 22 кВт",Департамент транспорта и развития дорожно-транспортной инфраструктуры города Москвы,Южный административный округ,район Зябликово,"город Москва, Ореховый бульвар, дом 24, корпус 3А",37.75105,55.61425
2617438704,"Станция №362, 50 кВт",Департамент транспорта и развития дорожно-транспортной инфраструктуры города Москвы,Центральный административный округ,Тверской район,"Российская Федерация, город Москва, внутригородская территория муниципальный округ Тверской, 2-й Лесной переулок, дом 8",37.58726,55.7812
2617438705,"Станция №106, 50 кВт",Департамент транспорта и развития дорожно-транспортной инфраструктуры города Москвы,Центральный административный округ,район Замоскворечье,"Российская Федерация, город Москва, внутригородская территория муниципальный округ Замоскворечье, Дубининская улица, дом 42",37.63502,55.72394
2617438706,"Станция №378, 50 кВт",Департамент транспорта и развития дорожно-транспортной инфраструктуры города Москвы,Восточный административный округ,район Измайлово,"Российская Федерация, город Москва, внутригородская территория муниципальный округ Соколиная Гора, Измайловское шоссе, дом 55",37.80212,55.797254
2617438707,"Станция №388, 22 кВт",Департамент транспорта и развития дорожно-транспортной инфраструктуры города Москвы,Западный административный округ,район Солнцево,"Российская Федерация, город Москва, внутригородская территория муниципальный округ Солнцево, улица Богданова, дом 58",37.389749,55.647898
2617438709,"Станция №415, 22 кВт",Департамент транспорта и развития дорожно-транспортной инфраструктуры города Москвы,Западный административный округ,район Тропарёво-Никулино,"Российская Федерация, город Москва, внутригородская территория муниципальный округ Тропарево-Никулино, Ленинский проспект, дом 162",37.468855,55.64675
2617438711,"Станция №168, 22 кВт",Департамент транспорта и развития дорожно-транспортной инфраструктуры города Москвы,Южный административный округ,Даниловский район,"Российская Федерация, город Москва, внутригородская территория муниципальный округ Даниловский, 1-й Автозаводский проезд, дом 5",37.657684,55.704353
2617438713,"Станция №224, 22 кВт",Департамент транспорта и развития дорожно-транспортной инфраструктуры города Москвы,Центральный административный округ,Пресненский район,"Российская Федерация, город Москва, внутригородская территория муниципальный округ Пресненский, Красногвардейский бульвар, дом 9",37.54384,55.7607
2657077540,"Станция №418, 50 кВт",Департамент транспорта и развития дорожно-транспортной инфраструктуры города Москвы,Западный административный округ,район Ново-Переделкино,"Российская Федерация, город Москва, внутригородская территория муниципальный округ Ново-Переделкино, 6-я улица Новые Сады, дом 2",37.344791,55.650991
2657077549,"Станция №805, 50 кВт",Департамент транспорта и развития дорожно-транспортной инфраструктуры города Москвы,Южный административный округ,Донской район,"Российская Федерация, город Москва, внутригородская территория муниципальный округ Донской, улица Шаболовка, дом 31Г",37.609781,55.720261
2657077553,"Станция №213, 22 кВт",Департамент транспорта и развития дорожно-транспортной инфраструктуры города Москвы,Центральный административный округ,Мещанский район,"Российская Федерация, город Москва, внутригородская территория муниципальный округ Мещанский, Банный переулок, дом 7, корпус 1",37.6381,55.78595
2657077554,"Станция №710, 50 кВт",Департамент транспорта и развития дорожно-транспортной инфраструктуры города Москвы,Юго-Восточный административный округ,Южнопортовый район,"Российская Федерация, город Москва, внутригородская территория муниципальный округ Южнопортовый, Волгоградский проспект, домовладение 24, корпус 1",37.680053,55.727613
2657077556,"Станция №212, 22 кВт",Департамент транспорта и развития дорожно-транспортной инфраструктуры города Москвы,Центральный административный округ,Мещанский район,"Российская Федерация, город Москва, внутригородская территория муниципальный округ Мещанский, проспект Мира, дом 64",37.636975,55.78616
2657077557,"Станция №116, 50 кВт",Департамент транспорта и развития дорожно-транспортной инфраструктуры города Москвы,Центральный административный округ,район Якиманка,"Российская Федерация, город Москва, внутригородская территория муниципальный округ Якиманка, Мытная улица, дом 46, строение 5",37.615258,55.72045
2657077558,"Станция №381, 50 кВт",Департамент транспорта и развития дорожно-транспортной инфраструктуры города Москвы,Западный административный округ,район Фили-Давыдково,"Российская Федерация, город Москва, внутригородская территория муниципальный округ Фили-Давыдково, улица Герасима Курина, дом 20",37.4687,55.730299
2657077560,"Станция №727, 50 кВт",Департамент транспорта и развития дорожно-транспортной инфраструктуры города Москвы,Центральный административный округ,Пресненский район,"Российская Федерация, город Москва, внутригородская территория муниципальный округ Пресненский, Волков переулок, дом 17",37.574048,55.764156
2657077563,"Станция №316, 22 кВт",Департамент транспорта и развития дорожно-транспортной инфраструктуры города Москвы,Северо-Западный административный округ,район Хорошёво-Мнёвники,"Российская Федерация, город Москва, внутригородская территория муниципальный округ Хорошево-Мневники, бульвар Генерала Карбышева, дом 18",37.4717,55.78153
2657077565,"Станция №332, 22 кВт",Департамент транспорта и развития дорожно-транспортной инфраструктуры города Москвы,Юго-Западный административный округ,район Зюзино,"Российская Федерация, город Москва, внутригородская территория муниципальный округ Зюзино, Азовская улица, дом 24, корпус 1",37.5983,55.6491
2657077566,"Станция №317, 22 кВт",Департамент транспорта и развития дорожно-транспортной инфраструктуры города Москвы,Южный административный округ,район Нагатинский Затон,"Российская Федерация, город Москва, внутригородская территория муниципальный округ Нагатинский Затон, улица Новинки, дом 4",37.667726,55.676782
2657077573,"Станция №802, 50 кВт",Департамент транспорта и развития дорожно-транспортной инфраструктуры города Москвы,Юго-Западный административный округ,Академический район,"город Москва, улица Вавилова, дом 7Б",37.58751,55.70521
2657077602,"Станция №356, 50 кВт",Департамент транспорта и развития дорожно-транспортной инфраструктуры города Москвы,Западный административный округ,район Очаково-Матвеевское,"город Москва, Очаковское шоссе, дом 2А",37.46114,55.69758
2657102576,"Станция №301, 22 кВт",Департамент транспорта и развития дорожно-транспортной инфраструктуры города Москвы,Центральный административный округ,Басманный район,"Российская Федерация, город Москва, внутригородская территория муниципальный округ Басманный, Большой Демидовский переулок, дом 7, строение 6",37.664788,55.763554
2657102590,"Станция №682, 50 кВт",Департамент транспорта и развития дорожно-транспортной инфраструктуры города Москвы,Юго-Восточный административный округ,район Текстильщики,"Российская Федерация, город Москва, внутригородская территория муниципальный округ Текстильщики, улица Чистова, дом 9/19",37.74063,55.69675
2657102593,"Станция №705, 50 кВт",Департамент транспорта и развития дорожно-транспортной инфраструктуры города Москвы,Юго-Восточный административный округ,район Марьино,"Российская Федерация, город Москва, внутригородская территория муниципальный округ Марьино, Белореченская улица, дом 37, корпус 1",37.770424,55.664818
2657102596,"Станция №674, 50 кВт",Департамент транспорта и развития дорожно-транспортной инфраструктуры города Москвы,Северо-Западный административный округ,район Южное Тушино,"Российская Федерация, город Москва, внутригородская территория муниципальный округ Южное Тушино, Окружная улица, дом 6",37.39936,55.843628
2657102597,"Станция №804, 50 кВт",Департамент транспорта и развития дорожно-транспортной инфраструктуры города Москвы,Южный административный округ,Донской район,"Российская Федерация, город Москва, внутригородская территория муниципальный округ Донской, улица Шаболовка, дом 31Г",37.609695,55.720028
2657102638,"Станция №347, 22 кВт",Департамент транспорта и развития дорожно-транспортной инфраструктуры города Москвы,Южный административный округ,район Москворечье-Сабурово,"Российская Федерация, город Москва, внутригородская территория муниципальный округ Москворечье-Сабурово, улица Москворечье, дом 4, корпус 1",37.6531,55.64458
2657102640,"Станция №334, 50 кВт",Департамент транспорта и развития дорожно-транспортной инфраструктуры города Москвы,Центральный административный округ,Таганский район,"Российская Федерация, город Москва, внутригородская территория муниципальный округ Таганский, Гжельский переулок, дом 12/3, строение 1",37.67616,55.74803
2657102641,"Станция №400, 22 кВт",Департамент транспорта и развития дорожно-транспортной инфраструктуры города Москвы,Западный административный округ,район Тропарёво-Никулино,"Российская Федерация, город Москва, внутригородская территория муниципальный округ Тропарево-Никулино, улица Академика Анохина, дом 7",37.47299,55.66065
2657102642,"Станция №363, 50 кВт",Департамент транспорта и развития дорожно-транспортной инфраструктуры города Москвы,Северо-Восточный административный округ,Останкинский район,"Российская Федерация, город Москва, внутригородская территория муниципальный округ Останкинский, проспект Мира, дом 123",37.642727,55.823784
2657102646,"Станция №89, 22 кВт",Департамент транспорта и развития дорожно-транспортной инфраструктуры города Москвы,Северо-Восточный административный округ,район Северное Медведково,"Российская Федерация, город Москва, внутригородская территория муниципальный округ Северное Медведково, улица Грекова, дом 3, корпус 1",37.661643,55.884849
2660533583,"Станция №473, 60 кВт",Департамент транспорта и развития дорожно-транспортной инфраструктуры города Москвы,Северный административный округ,Дмитровский район,"Российская Федерация, город Москва, внутригородская территория муниципальный округ Дмитровский, Карельский бульвар, дом 5",37.534832,55.8938719
2660533584,"Станция №434, 60 кВт",Департамент транспорта и развития дорожно-транспортной инфраструктуры города Москвы,Северо-Восточный административный округ,Бутырский район,"Российская Федерация, город Москва, внутригородская территория муниципальный округ Бутырский, улица Добролюбова, дом 20",37.593018,55.817263
2660533586,"Станция №439, 60 кВт",Департамент транспорта и развития дорожно-транспортной инфраструктуры города Москвы,Северный административный округ,район Аэропорт,"Российская Федерация, город Москва, внутригородская территория муниципальный округ Аэропорт, Часовая улица, дом 12",37.531669,55.808162
2660533587,"Станция №437, 60 кВт",Департамент транспорта и развития дорожно-транспортной инфраструктуры города Москвы,Северо-Восточный административный округ,район Отрадное,"Российская Федерация, город Москва, внутригородская территория муниципальный округ Отрадное, улица Санникова, дом 17",37.599864,55.863476
2660533588,"Станция №485, 60 кВт",Департамент транспорта и развития дорожно-транспортной инфраструктуры города Москвы,Восточный административный округ,район Богородское,"Российская Федерация, город Москва, внутригородская территория муниципальный округ Богородское, Погонный проезд, дом 1, корпус 6, строение 1",37.69977,55.820117
2660533589,"Станция №468, 60 кВт",Департамент транспорта и развития дорожно-транспортной инфраструктуры города Москвы,Северо-Восточный административный округ,район Свиблово,"Российская Федерация, город Москва, внутригородская территория муниципальный округ Свиблово, Снежная улица, дом 8",37.642417,55.849359
2660533590,"Станция №436, 60 кВт",Департамент транспорта и развития дорожно-транспортной инфраструктуры города Москвы,Восточный административный округ,район Сокольники,"Российская Федерация, город Москва, внутригородская территория муниципальный округ Сокольники, улица Короленко, дом 1, корпус 2",37.688938,55.797652
2660533591,"Станция №455, 60 кВт",Департамент транспорта и развития дорожно-транспортной инфраструктуры города Москвы,Северный административный округ,район Ховрино,"Российская Федерация, город Москва, внутригородская территория муниципальный округ Ховрино, Петрозаводская улица, дом 8",37.503058,55.863575
2660533592,"Станция №469, 60 кВт",Департамент транспорта и развития дорожно-транспортной инфраструктуры города Москвы,Северо-Восточный административный округ,район Марфино,"Российская Федерация, город Москва, внутригородская территория муниципальный округ Марфино, Малая Ботаническая улица, дом 3",37.593023,55.832575
2660533593,"Станция №524, 50 кВт",Департамент транспорта и развития дорожно-транспортной инфраструктуры города Москвы,Юго-Западный административный округ,район Коньково,"Российская Федерация, город Москва, внутригородская территория муниципальный округ Коньково, улица Миклухо-Маклая, дом 61",37.540921,55.638786
2660533594,"Станция №497, 50 кВт",Департамент транспорта и развития дорожно-транспортной инфраструктуры города Москвы,Южный административный округ,Даниловский район,"Российская Федерация, город Москва, внутригородская территория муниципальный округ Даниловский, Дубининская улица, дом 98",37.632867,55.712839
2660533595,"Станция №606, 50 кВт",Департамент транспорта и развития дорожно-транспортной инфраструктуры города Москвы,Южный административный округ,Донской район,"Российская Федерация, город Москва, внутригородская территория муниципальный округ Донской, улица Шаболовка, дом 31Г",37.60973,55.720143
2660533599,"Станция №471, 60 кВт",Департамент транспорта и развития дорожно-транспортной инфраструктуры города Москвы,Северный административный округ,район Восточное Дегунино,"Российская Федерация, город Москва, внутригородская территория муниципальный округ Восточное Дегунино, Дубнинская улица, дом 10, корпус 1",37.56775,55.861483
2660533601,"Станция №446, 60 кВт",Департамент транспорта и развития дорожно-транспортной инфраструктуры города Москвы,Северо-Восточный административный округ,Бабушкинский район,"Российская Федерация, город Москва, внутригородская территория муниципальный округ Бабушкинский, Кольская улица, дом 2, корпус 5, строение 1",37.657795,55.859398
2660533602,"Станция №443, 60 кВт",Департамент транспорта и развития дорожно-транспортной инфраструктуры города Москвы,Северо-Восточный административный округ,Бутырский район,"город Москва, улица Фонвизина, дом 13",37.585877,55.820638
2660533604,"Станция №447, 60 кВт",Департамент транспорта и развития дорожно-транспортной инфраструктуры города Москвы,Северо-Восточный административный округ,район Отрадное,"Российская Федерация, город Москва, внутригородская территория муниципальный округ Отрадное, Отрадная улица, дом 18",37.617848,55.854668
2660533606,"Станция №481, 60 кВт",Департамент транспорта и развития дорожно-транспортной инфраструктуры города Москвы,Северный административный округ,Тимирязевский район,"Российская Федерация, город Москва, внутригородская территория муниципальный округ Тимирязевский, Локомотивный проезд, дом 3",37.576578,55.838746
2660533607,"Станция №480, 60 кВт",Департамент транспорта и развития дорожно-транспортной инфраструктуры города Москвы,Северо-Восточный административный округ,Алтуфьевский район,"Российская Федерация, город Москва, внутригородская территория муниципальный округ Алтуфьевский, Алтуфьевское шоссе, дом 64",37.587394,55.884787
2660533610,"Станция №475, 60 кВт",Департамент транспорта и развития дорожно-транспортной инфраструктуры города Москвы,Северо-Западный административный округ,район Покровское-Стрешнево,"Российская Федерация, город Москва, внутригородская территория муниципальный округ Покровское-Стрешнево, Малая Набережная улица, дом 13",37.450228,55.834954
2660533611,"Станция №474, 60 кВт",Департамент транспорта и развития дорожно-транспортной инфраструктуры города Москвы,Северо-Западный административный округ,район Южное Тушино,"Российская Федерация, город Москва, внутригородская территория муниципальный округ Южное Тушино, улица Свободы, дом 42",37.454993,55.845076
2660533612,"Станция №472, 60 кВт",Департамент транспорта и развития дорожно-транспортной инфраструктуры города Москвы,Северный административный округ,Головинский район,"Российская Федерация, город Москва, внутригородская территория муниципальный округ Головинский, Солнечногорская улица, дом 21",37.521376,55.862077
2660533613,"Станция №462, 60 кВт",Департамент транспорта и развития дорожно-транспортной инфраструктуры города Москвы,Северный административный округ,район Коптево,"Российская Федерация, город Москва, внутригородская территория муниципальный округ Коптево, Новопетровская улица, дом 14",37.522147,55.827332
2660533614,"Станция №461, 60 кВт",Департамент транспорта и развития дорожно-транспортной инфраструктуры города Москвы,Северо-Восточный административный округ,район Марфино,"Российская Федерация, город Москва, внутригородская территория муниципальный округ Марфино, Гостиничная улица, дом 9",37.580018,55.845672
2660533615,"Станция №460, 60 кВт",Департамент транспорта и развития дорожно-транспортной инфраструктуры города Москвы,Северо-Восточный административный округ,Ярославский район,"Российская Федерация, город Москва, внутригородская территория муниципальный округ Ярославский, улица Егора Абакумова, дом 10, корпус 1",37.714619,55.879456
2660533616,"Станция №459, 60 кВт",Департамент транспорта и развития дорожно-транспортной инфраструктуры города Москвы,Северо-Восточный административный округ,Останкинский район,"Российская Федерация, город Москва, внутригородская территория муниципальный округ Останкинский, улица Академика Королёва, дом 12",37.603501,55.823646
2660533617,"Станция №458, 60 кВт",Департамент транспорта и развития дорожно-транспортной инфраструктуры города Москвы,Северный административный округ,Дмитровский район,"Российская Федерация, город Москва, внутригородская территория муниципальный округ Дмитровский, Яхромская улица, дом 6",37.539208,55.884396
2660533618,"Станция №456, 60 кВт",Департамент транспорта и развития дорожно-транспортной инфраструктуры города Москвы,Северо-Восточный административный округ,Бабушкинский район,"Российская Федерация, город Москва, внутригородская территория муниципальный округ Бабушкинский, улица Лётчика Бабушкина, дом 10/1",37.674386,55.862283
2660533621,"Станция №449, 60 кВт",Департамент транспорта и развития дорожно-транспортной инфраструктуры города Москвы,Северный административный округ,Головинский район,"Российская Федерация, город Москва, внутригородская территория муниципальный округ Головинский, Смольная улица, дом 2",37.500706,55.844507
2660533622,"Станция №448, 60 кВт",Департамент транспорта и развития дорожно-транспортной инфраструктуры города Москвы,Северный административный округ,Войковский район,"Российская Федерация, город Москва, внутригородская территория муниципальный округ Войковский, Головинское шоссе, дом 10Г",37.497068,55.838566
2660533623,"Станция №550, 80 кВт",Департамент транспорта и развития дорожно-транспортной инфраструктуры города Москвы,Западный административный округ,район Раменки,"Российская Федерация, город Москва, внутригородская территория муниципальный округ Раменки, улица Косыгина, дом 23, строение 1",37.541674,55.708511
2660533628,"Станция №293, 50 кВт",Департамент транспорта и развития дорожно-транспортной инфраструктуры города Москвы,Центральный административный округ,Тверской район,"Российская Федерация, город Москва, внутригородская территория муниципальный округ Тверской, Лесная улица, дом 61, строение 1",37.594019,55.782309
2660537307,"Станция №399, 50 кВт",Департамент транспорта и развития дорожно-транспортной инфраструктуры города Москвы,Юго-Восточный административный округ,район Лефортово,"город Москва, Красноказарменная улица, дом 13, строение 1",37.703313,55.756139
2660537847,"Станция №484, 60 кВт",Департамент транспорта и развития дорожно-транспортной инфраструктуры города Москвы,Северо-Восточный административный округ,район Отрадное,"город Москва, Сигнальный проезд, дом 37А, строение Б/Н2",37.593442,55.8515
2660538150,"Станция №236, 22 кВт",Департамент транспорта и развития дорожно-транспортной инфраструктуры города Москвы,Северо-Восточный административный округ,район Свиблово,"Российская Федерация, город Москва, внутригородская территория муниципальный округ Свиблово, Снежная улица, дом 19, корпус 2",37.650323,55.854172
2660538461,"Станция №413, 22 кВт",Департамент транспорта и развития дорожно-транспортной инфраструктуры города Москвы,Центральный административный округ,Пресненский район,"город Москва, Тестовская улица, дом 9",37.531374,55.752395
2660540073,"Станция №441, 60 кВт",Департамент транспорта и развития дорожно-транспортной инфраструктуры города Москвы,Северо-Западный административный округ,район Покровское-Стрешнево,"Российская Федерация, город Москва, внутригородская территория муниципальный округ Покровское-Стрешнево, Волоколамское шоссе, дом 60, корпус 2",37.463862,55.81687
2660540518,"Станция №463, 60 кВт",Департамент транспорта и развития дорожно-транспортной инфраструктуры города Москвы,Северо-Восточный административный округ,район Отрадное,"Российская Федерация, город Москва, внутригородская территория муниципальный округ Отрадное, улица Римского-Корсакова, дом 18",37.608516,55.874746
2681782909,"Станция №442, 60 кВт",Департамент транспорта и развития дорожно-транспортной инфраструктуры города Москвы,Северный административный округ,район Ховрино,"Российская Федерация, город Москва, внутригородская территория муниципальный округ Ховрино, Беломорская улица, дом 38",37.481115,55.866782
2681782915,"Станция №483, 60 кВт",Департамент транспорта и развития дорожно-транспортной инфраструктуры города Москвы,Северный административный округ,район Ховрино,"Российская Федерация, город Москва, внутригородская территория муниципальный округ Ховрино, улица Дыбенко, дом 44",37.482344,55.878149
2681784197,"Станция №247, 50 кВт",Департамент транспорта и развития дорожно-транспортной инфраструктуры города Москвы,Центральный административный округ,Басманный район,"Российская Федерация, город Москва, внутригородская территория муниципальный округ Басманный, улица Казакова, дом 8, строение 1",37.662296,55.762496
2681784201,"Станция №411, 50 кВт",Департамент транспорта и развития дорожно-транспортной инфраструктуры города Москвы,Западный административный округ,район Филёвский Парк,"Российская Федерация, город Москва, внутригородская территория муниципальный округ Филевский Парк, улица Барклая, дом 11",37.49679,55.74485
2684885799,"Станция №470, 60 кВт",Департамент транспорта и развития дорожно-транспортной инфраструктуры города Москвы,Северный административный округ,район Коптево,"Российская Федерация, город Москва, внутригородская территория муниципальный округ Коптево, улица Лихоборские Бугры, дом 3",37.547928,55.842043
2684885816,"Станция №457, 60 кВт",Департамент транспорта и развития дорожно-транспортной инфраструктуры города Москвы,Северо-Восточный административный округ,район Ростокино,"город Москва, улица Докукина, дом 4",37.6556,55.837373
2688513947,"Парус, 60кВт",ООО «Энергоцентр»,Центральный административный округ,Тверской район,"Российская Федерация, город Москва, внутригородская территория муниципальный округ Тверской, 1-й Самотёчный переулок, дом 2, строение 1",37.613092,55.778754
2688513952,"Ensto, 22кВт",ООО «Энергоцентр»,Юго-Западный административный округ,район Южное Бутово,"Российская Федерация, город Москва, внутригородская территория муниципальный округ Южное Бутово, аллея Витте, дом 4",37.540363,55.548629
2688513961,"Ensto, 22кВт",ООО «Энергоцентр»,Центральный административный округ,район Замоскворечье,"Российская Федерация, город Москва, внутригородская территория муниципальный округ Замоскворечье, Садовническая улица, дом 24, строение 3",37.634561,55.745501
2688513969,"Ensto, 22кВт",ООО «Энергоцентр»,Центральный административный округ,район Замоскворечье,"Российская Федерация, город Москва, внутригородская территория муниципальный округ Замоскворечье, Садовническая улица, дом 24, строение 3",37.634651,55.745467
2688513976,"Ensto, 22кВт",ООО «Энергоцентр»,Центральный административный округ,район Якиманка,"Российская Федерация, город Москва, внутригородская территория муниципальный округ Якиманка, улица Большая Полянка, дом 28, корпус 1",37.619199,55.7358
2688513980,"Ensto, 22кВт",ООО «Энергоцентр»,Центральный административный округ,район Якиманка,"Российская Федерация, город Москва, внутригородская территория муниципальный округ Якиманка, Мароновский переулок, дом 1/7, строение 1",37.610551,55.735
2688513984,"Ensto, 22кВт",ООО «Энергоцентр»,Восточный административный округ,район Измайлово,"Российская Федерация, город Москва, внутригородская территория муниципальный округ Измайлово, Измайловское шоссе, дом 71, корпус 2Б",37.749706,55.7891
2688513990,"Ensto, 22кВт",ООО «Энергоцентр»,Юго-Восточный административный округ,район Марьино,"Российская Федерация, город Москва, внутригородская территория муниципальный округ Марьино, Братиславская улица, дом 20",37.760033,55.6564
2688513993,"Ensto, 22кВт",ООО «Энергоцентр»,Центральный административный округ,Пресненский район,"Российская Федерация, город Москва, внутригородская территория муниципальный округ Пресненский, Большая Бронная улица, дом 14, строение 1",37.600133,55.7623
2688513996,"Ensto, 22кВт",ООО «Энергоцентр»,Южный административный округ,район Нагатино-Садовники,"Российская Федерация, город Москва, внутригородская территория муниципальный округ Нагатино-Садовники, Старокаширское шоссе, дом 4, корпус 1А",37.628406,55.6589
2688513998,"Ensto, 22кВт",ООО «Энергоцентр»,Юго-Западный административный округ,Обручевский район,"Российская Федерация, город Москва, внутригородская территория муниципальный округ Обручевский, улица Обручева, дом 13, строение 2",37.536184,55.6564
2688514005,"Ensto, 22кВт",ООО «Энергоцентр»,Юго-Западный административный округ,Обручевский район,"Нижняя Красносельская улица, земельный участок 14/2",37.536184,55.6564
2688514006,"ПСС, 22кВт",ООО «Энергоцентр»,Юго-Западный административный округ,район Южное Бутово,"Российская Федерация, город Москва, внутригородская территория муниципальный округ Печатники, Южнопортовая улица, дом 17, строение 9",37.540363,55.5486
2690310973,"Станция №451, 60 кВт",Департамент транспорта и развития дорожно-транспортной инфраструктуры города Москвы,Северный административный округ,Тимирязевский район,"Российская Федерация, город Москва, внутригородская территория муниципальный округ Тимирязевский, 3-й Нижнелихоборский проезд, дом 5, строение 8",37.565412,55.846419
2690310976,"Станция №450, 60 кВт",Департамент транспорта и развития дорожно-транспортной инфраструктуры города Москвы,Северный административный округ,Тимирязевский район,"Российская Федерация, город Москва, внутригородская территория муниципальный округ Тимирязевский, Красностуденческий проезд, дом 21",37.560356,55.823934
2690310978,"Станция №445, 60 кВт",Департамент транспорта и развития дорожно-транспортной инфраструктуры города Москвы,Северо-Восточный административный округ,район Отрадное,"Российская Федерация, город Москва, внутригородская территория муниципальный округ Отрадное, улица Мусоргского, дом 1Б",37.620326,55.862223
2690310979,"Станция №454, 60 кВт",Департамент транспорта и развития дорожно-транспортной инфраструктуры города Москвы,Северо-Восточный административный округ,район Лианозово,"Российская Федерация, город Москва, внутригородская территория муниципальный округ Лианозово, Псковская улица, дом 7, корпус 1",37.550427,55.904207
2716357814,"Станция №433, 60 кВт",Департамент транспорта и развития дорожно-транспортной инфраструктуры города Москвы,Северный административный округ,район Аэропорт,"Российская Федерация, город Москва, внутригородская территория муниципальный округ Аэропорт, 1-я Аэропортовская улица, дом 6",37.536213,55.800947
2716357815,"Станция №507, 150 кВт",Департамент транспорта и развития дорожно-транспортной инфраструктуры города Москвы,Центральный административный округ,район Хамовники,"Российская Федерация, город Москва, внутригородская территория муниципальный округ Хамовники, Денежный переулок, дом 8-10",37.587923,55.743383
2716357817,"Станция №414, 50 кВт",Департамент транспорта и развития дорожно-транспортной инфраструктуры города Москвы,Центральный административный округ,Пресненский район,"город Москва, Тестовская улица, дом 9",37.531366,55.752268
2716357818,"Станция №464, 60 кВт",Департамент транспорта и развития дорожно-транспортной инфраструктуры города Москвы,Северо-Восточный административный округ,район Южное Медведково,"Российская Федерация, город Москва, внутригородская территория муниципальный округ Южное Медведково, Полярная улица, дом 4, корпус 1",37.638172,55.872198
2716418620,"Станция №303, 60 кВт",Департамент транспорта и развития дорожно-транспортной инфраструктуры города Москвы,Восточный административный округ,район Косино-Ухтомский,"город Москва, улица Руднёвка, дом 2, строение 1",37.88625,55.715143
2716418621,"Станция №304, 60 кВт",Департамент транспорта и развития дорожно-транспортной инфраструктуры города Москвы,Западный административный округ,район Фили-Давыдково,"город Москва, Кутузовский проспект, дом 88",37.449121,55.726217
2716418622,"Станция №305, 60 кВт",Департамент транспорта и развития дорожно-транспортной инфраструктуры города Москвы,Западный административный округ,район Фили-Давыдково,"город Москва, Кутузовский проспект, дом 88",37.449204,55.726233
2716418658,"Станция №478, 60 кВт",Департамент транспорта и развития дорожно-транспортной инфраструктуры города Москвы,Северо-Восточный административный округ,Ярославский район,"Российская Федерация, город Москва, внутригородская территория муниципальный округ Ярославский, Холмогорская улица, дом 8",37.715994,55.881867
2756901894,"Станция №34, 44 кВт",Департамент транспорта и развития дорожно-транспортной инфраструктуры города Москвы,Центральный административный округ,район Замоскворечье,"Российская Федерация, город Москва, внутригородская территория муниципальный округ Замоскворечье, улица Балчуг, дом 5",37.6259073,55.7471761
2756901895,"Станция №47, 44 кВт",Департамент транспорта и развития дорожно-транспортной инфраструктуры города Москвы,Центральный административный округ,Мещанский район,"Российская Федерация, город Москва, внутригородская территория муниципальный округ Мещанский, Большая Переяславская улица, дом 17",37.640051,55.7882656
2756901903,"Станция №77, 44 кВт",Департамент транспорта и развития дорожно-транспортной инфраструктуры города Москвы,Центральный административный округ,Пресненский район,"Российская Федерация, город Москва, внутригородская территория муниципальный округ Пресненский, Волков переулок, дом 13, строение 1",37.5741272,55.763616
2756901905,"Станция №35, 44 кВт",Департамент транспорта и развития дорожно-транспортной инфраструктуры города Москвы,Центральный административный округ,район Замоскворечье,"Российская Федерация, город Москва, внутригородская территория муниципальный округ Замоскворечье, улица Балчуг, дом 5",37.6259247,55.7471375
2756901908,"Станция №26, 44 кВт",Департамент транспорта и развития дорожно-транспортной инфраструктуры города Москвы,Центральный административный округ,район Якиманка,"Российская Федерация, город Москва, внутригородская территория муниципальный округ Якиманка, улица Большая Полянка, дом 1/3",37.6165839,55.7425462
2756901909,"Станция №54, 44 кВт",Департамент транспорта и развития дорожно-транспортной инфраструктуры города Москвы,Центральный административный округ,Пресненский район,"Российская Федерация, город Москва, внутригородская территория муниципальный округ Пресненский, улица Климашкина, дом 17",37.5683135,55.7678297
2756901910,"Станция №48, 44 кВт",Департамент транспорта и развития дорожно-транспортной инфраструктуры города Москвы,Центральный административный округ,Мещанский район,"Российская Федерация, город Москва, внутригородская территория муниципальный округ Мещанский, улица Верземнека, дом 5",37.6290365,55.7906781
2756901914,"Станция №40, 44 кВт",Департамент транспорта и развития дорожно-транспортной инфраструктуры города Москвы,Центральный административный округ,Пресненский район,"Российская Федерация, город Москва, внутригородская территория муниципальный округ Пресненский, улица Пресненский Вал, дом 7, строение 1",37.5647274,55.7672589
2756901915,"Станция №46, 44 кВт",Департамент транспорта и развития дорожно-транспортной инфраструктуры города Москвы,Центральный административный округ,Мещанский район,"Российская Федерация, город Москва, внутригородская территория муниципальный округ Мещанский, улица Щепкина, дом 3",37.6287656,55.7747347
2756901926,"Станция №39, 44 кВт",Департамент транспорта и развития дорожно-транспортной инфраструктуры города Москвы,Центральный административный округ,район Хамовники,"Российская Федерация, город Москва, внутригородская территория муниципальный округ Хамовники, 3-я Фрунзенская улица, дом 19",37.5726054,55.7232451
2756901927,"Станция №63, 44 кВт",Департамент транспорта и развития дорожно-транспортной инфраструктуры города Москвы,Центральный административный округ,Тверской район,"Российская Федерация, город Москва, внутригородская территория муниципальный округ Тверской, Селезнёвская улица, дом 32",37.61221377,55.78115767
2756901931,"Станция №55, 44 кВт",Департамент транспорта и развития дорожно-транспортной инфраструктуры города Москвы,Центральный административный округ,Красносельский район,"Российская Федерация, город Москва, внутригородская территория муниципальный округ Красносельский, Докучаев переулок, дом 3, строение 1",37.6423832,55.7744442
2756901936,"Станция №56, 44 кВт",Департамент транспорта и развития дорожно-транспортной инфраструктуры города Москвы,Центральный административный округ,Красносельский район,"Российская Федерация, город Москва, внутригородская территория муниципальный округ Красносельский, Докучаев переулок, дом 3, строение 1",37.6424637,55.7744245
2756901938,"Станция №57, 44 кВт",Департамент транспорта и развития дорожно-транспортной инфраструктуры города Москвы,Центральный административный округ,Пресненский район,"Российская Федерация, город Москва, внутригородская территория муниципальный округ Пресненский, улица Николаева, дом 1",37.5683309,55.7557757
2756901939,"Станция №12, 44 кВт",Департамент транспорта и развития дорожно-транспортной инфраструктуры города Москвы,Центральный административный округ,Басманный район,"Российская Федерация, город Москва, внутригородская территория муниципальный округ Басманный, Потаповский переулок, дом 14",37.6415705,55.7596112
2756901941,"Станция №58, 44 кВт",Департамент транспорта и развития дорожно-транспортной инфраструктуры города Москвы,Центральный административный округ,Пресненский район,"Российская Федерация, город Москва, внутригородская территория муниципальный округ Пресненский, улица Николаева, дом 1",37.5682692,55.7556774
2756901942,"Станция №21, 44 кВт",Департамент транспорта и развития дорожно-транспортной инфраструктуры города Москвы,Центральный административный округ,Басманный район,"Российская Федерация, город Москва, внутригородская территория муниципальный округ Басманный, Колпачный переулок, дом 3, строение 2",37.643157,55.7583226
2756901944,"Станция №60, 44 кВт",Департамент транспорта и развития дорожно-транспортной инфраструктуры города Москвы,Центральный административный округ,Пресненский район,"Российская Федерация, город Москва, внутригородская территория муниципальный округ Пресненский, Волков переулок, дом 13, строение 1",37.5741204,55.7636667
2756901946,"Станция №33, 44 кВт",Департамент транспорта и развития дорожно-транспортной инфраструктуры города Москвы,Центральный административный округ,Басманный район,"Российская Федерация, город Москва, внутригородская территория муниципальный округ Басманный, улица Макаренко, дом 1/19",37.6467519,55.7612478
2756901947,"Станция №37, 44 кВт",Департамент транспорта и развития дорожно-транспортной инфраструктуры города Москвы,Центральный административный округ,Пресненский район,"Российская Федерация, город Москва, внутригородская территория муниципальный округ Пресненский, улица Климашкина, дом 17",37.5683832,55.7678365
2756901949,"Станция №36, 44 кВт",Департамент транспорта и развития дорожно-транспортной инфраструктуры города Москвы,Центральный административный округ,Басманный район,"Российская Федерация, город Москва, внутригородская территория муниципальный округ Басманный, Малый Трёхсвятительский переулок, дом 3, строение 6",37.6468464,55.7543968
2756901951,"Станция №38, 44 кВт",Департамент транспорта и развития дорожно-транспортной инфраструктуры города Москвы,Центральный административный округ,Пресненский район,"Российская Федерация, город Москва, внутригородская территория муниципальный округ Пресненский, улица Пресненский Вал, дом 7, строение 1",37.5647367,55.7672899
2756901952,"Станция №27, 44 кВт",Департамент транспорта и развития дорожно-транспортной инфраструктуры города Москвы,Центральный административный округ,Таганский район,"Российская Федерация, город Москва, внутригородская территория муниципальный округ Таганский, Большой Николоворобинский переулок, дом 7, строение 2",37.6481531,55.7515242
2756901954,"Станция №24, 44 кВт",Департамент транспорта и развития дорожно-транспортной инфраструктуры города Москвы,Центральный административный округ,Пресненский район,"Российская Федерация, город Москва, внутригородская территория муниципальный округ Пресненский, улица Пресненский Вал, дом 30",37.567828,55.7705997
2756901958,"Станция №19, 44 кВт",Департамент транспорта и развития дорожно-транспортной инфраструктуры города Москвы,Центральный административный округ,Тверской район,"Российская Федерация, город Москва, внутригородская территория муниципальный округ Тверской, Трёхпрудный переулок, дом 8",37.5979063,55.7649869
2756901965,"Станция №52, 44 кВт",Департамент транспорта и развития дорожно-транспортной инфраструктуры города Москвы,Южный административный округ,Даниловский район,"Российская Федерация, город Москва, внутригородская территория муниципальный округ Даниловский, 1-й Кожуховский проезд, дом 1/7",37.6585144,55.7044607
2756901968,"Станция №8, 44 кВт",Департамент транспорта и развития дорожно-транспортной инфраструктуры города Москвы,Центральный административный округ,Тверской район,"Российская Федерация, город Москва, внутригородская территория муниципальный округ Тверской, Глинищевский переулок, дом 6",37.6098367,55.7630588
2756901971,"Станция №17, 44 кВт",Департамент транспорта и развития дорожно-транспортной инфраструктуры города Москвы,Южный административный округ,Даниловский район,"Российская Федерация, город Москва, внутригородская территория муниципальный округ Даниловский, Автозаводская улица, дом 7",37.6601935,55.7079773
2756901972,"Станция №18, 44 кВт",Департамент транспорта и развития дорожно-транспортной инфраструктуры города Москвы,Центральный административный округ,район Арбат,"Российская Федерация, город Москва, внутригородская территория муниципальный округ Арбат, Поварская улица, дом 33, строение 1",37.5865029,55.7574425
2756901985,"Станция №14, 44 кВт",Департамент транспорта и развития дорожно-транспортной инфраструктуры города Москвы,Центральный административный округ,район Замоскворечье,"Российская Федерация, город Москва, внутригородская территория муниципальный округ Замоскворечье, Большая Татарская улица, дом 26",37.6335328,55.7393355
2756901986,"Станция №28, 44 кВт",Департамент транспорта и развития дорожно-транспортной инфраструктуры города Москвы,Центральный административный округ,район Хамовники,"Российская Федерация, город Москва, внутригородская территория муниципальный округ Хамовники, улица Остоженка, дом 36",37.595405,55.738987
2756901992,"Станция №31, 44 кВт",Департамент транспорта и развития дорожно-транспортной инфраструктуры города Москвы,Центральный административный округ,район Замоскворечье,"Российская Федерация, город Москва, внутригородская территория муниципальный округ Замоскворечье, Озерковская набережная, дом 44",37.6394873,55.736374
2756901994,"Станция №32, 44 кВт",Департамент транспорта и развития дорожно-транспортной инфраструктуры города Москвы,Центральный административный округ,район Замоскворечье,"Российская Федерация, город Москва, внутригородская территория муниципальный округ Замоскворечье, Озерковская набережная, дом 44",37.6395517,55.7362817
2756906747,"Станция №49, 44 кВт",Департамент транспорта и развития дорожно-транспортной инфраструктуры города Москвы,Центральный административный округ,Мещанский район,"Российская Федерация, город Москва, внутригородская территория муниципальный округ Мещанский, улица Гиляровского, дом 57, строение 1",37.6327666,55.7871773
2756907180,"Станция №3, 44 кВт",Департамент транспорта и развития дорожно-транспортной инфраструктуры города Москвы,Центральный административный округ,Тверской район,"Российская Федерация, город Москва, внутригородская территория муниципальный округ Тверской, Садовая-Самотёчная улица, дом 1",37.6129299,55.7736522
2756907816,"Станция №11, 44 кВт",Департамент транспорта и развития дорожно-транспортной инфраструктуры города Москвы,Центральный административный округ,Тверской район,"Российская Федерация, город Москва, внутригородская территория муниципальный округ Тверской, Садовая-Самотёчная улица, дом 1",37.6128709,55.7736507
2756908151,"Станция №41, 44 кВт",Департамент транспорта и развития дорожно-транспортной инфраструктуры города Москвы,Центральный административный округ,Таганский район,"Российская Федерация, город Москва, внутригородская территория муниципальный округ Таганский, улица Александра Солженицына, дом 23А, строение 2",37.6632673,55.7442654
2756908522,"Станция №68, 44 кВт",Департамент транспорта и развития дорожно-транспортной инфраструктуры города Москвы,Центральный административный округ,Таганский район,"Российская Федерация, город Москва, внутригородская территория муниципальный округ Таганский, улица Александра Солженицына, дом 23А, строение 2",37.6631922,55.7442397
2757003141,"Станция №53, 44 кВт",Департамент транспорта и развития дорожно-транспортной инфраструктуры города Москвы,Южный административный округ,Даниловский район,"Российская Федерация, город Москва, внутригородская территория муниципальный округ Даниловский, Восточная улица, дом 11, корпус 1",37.6588845,55.7130336
2757003192,"Станция №22, 44 кВт",Департамент транспорта и развития дорожно-транспортной инфраструктуры города Москвы,Южный административный округ,Даниловский район,"Российская Федерация, город Москва, внутригородская территория муниципальный округ Даниловский, улица Серпуховский Вал, дом 19, строение 4",37.6199152,55.7116841
2757003273,"Станция №23, 44 кВт",Департамент транспорта и развития дорожно-транспортной инфраструктуры города Москвы,Южный административный округ,Даниловский район,"Российская Федерация, город Москва, внутригородская территория муниципальный округ Даниловский, улица Серпуховский Вал, дом 19, строение 4",37.6196926,55.7116825
2757003300,"Станция №29, 44 кВт",Департамент транспорта и развития дорожно-транспортной инфраструктуры города Москвы,Центральный административный округ,район Замоскворечье,"Российская Федерация, город Москва, внутригородская территория муниципальный округ Замоскворечье, Руновский переулок, дом 5, строение 1",37.6354291,55.7428732
2757003318,"Станция №16, 44 кВт",Департамент транспорта и развития дорожно-транспортной инфраструктуры города Москвы,Центральный административный округ,район Якиманка,"Российская Федерация, город Москва, внутригородская территория муниципальный округ Якиманка, 1-й Голутвинский переулок, дом 3-5, строение 1",37.6137754,55.7392732
2757003436,"Станция №61, 44 кВт",Департамент транспорта и развития дорожно-транспортной инфраструктуры города Москвы,Южный административный округ,Донской район,"Российская Федерация, город Москва, внутригородская территория муниципальный округ Донской, Малый Калужский переулок, дом 2, строение 1",37.6005012,55.7190489
2757003495,"Станция №44, 44 кВт",Департамент транспорта и развития дорожно-транспортной инфраструктуры города Москвы,Южный административный округ,Донской район,"Российская Федерация, город Москва, внутригородская территория муниципальный округ Донской, улица Стасовой, дом 4",37.593741,55.7142799
2757003507,"Станция №59, 44 кВт",Департамент транспорта и развития дорожно-транспортной инфраструктуры города Москвы,Центральный административный округ,район Хамовники,"Российская Федерация, город Москва, внутригородская территория муниципальный округ Хамовники, улица Савельева, дом 5",37.5633185,55.7226169
2757003547,"Станция №51, 44 кВт",Департамент транспорта и развития дорожно-транспортной инфраструктуры города Москвы,Западный административный округ,район Дорогомилово,"Российская Федерация, город Москва, внутригородская территория муниципальный округ Дорогомилово, набережная Тараса Шевченко, дом 9",37.5614657,55.7522811
2757003643,"Станция №9, 44 кВт",Департамент транспорта и развития дорожно-транспортной инфраструктуры города Москвы,Центральный административный округ,Тверской район,"Российская Федерация, город Москва, внутригородская территория муниципальный округ Пресненский, Газетный переулок, дом 1/12",37.6075113,55.7566704
2757003683,"Станция №30, 44 кВт",Департамент транспорта и развития дорожно-транспортной инфраструктуры города Москвы,Центральный административный округ,район Арбат,"Российская Федерация, город Москва, внутригородская территория муниципальный округ Арбат, Староконюшенный переулок, дом 26",37.5950605,55.7479028
2757003694,"Станция №25, 44 кВт",Департамент транспорта и развития дорожно-транспортной инфраструктуры города Москвы,Центральный административный округ,район Хамовники,"город Москва, Курсовой переулок, дом 4",37.6058081,55.7421081
2757003851,"Станция №42, 44 кВт",Департамент транспорта и развития дорожно-транспортной инфраструктуры города Москвы,Центральный административный округ,район Хамовники,"Российская Федерация, город Москва, внутригородская территория муниципальный округ Хамовники, 2-й Обыденский переулок, дом 3, строение 1",37.6048344,55.7416436
2757003895,"Станция №6, 44 кВт",Департамент транспорта и развития дорожно-транспортной инфраструктуры города Москвы,Центральный административный округ,район Хамовники,"Российская Федерация, город Москва, внутригородская территория муниципальный округ Хамовники, Гоголевский бульвар, дом 17, строение 1",37.5991321,55.7470707
2757004052,"Станция №50, 44 кВт",Департамент транспорта и развития дорожно-транспортной инфраструктуры города Москвы,Западный административный округ,район Дорогомилово,"Российская Федерация, город Москва, внутригородская территория муниципальный округ Дорогомилово, Студенческая улица, дом 42",37.5388182,55.738679
2757004081,"Станция №62, 44 кВт",Департамент транспорта и развития дорожно-транспортной инфраструктуры города Москвы,Западный административный округ,район Дорогомилово,"Российская Федерация, город Москва, внутригородская территория муниципальный округ Дорогомилово, набережная Тараса Шевченко, дом 9",37.5613155,55.7522554
2773211089,"Станция №33, 44 кВт",Департамент транспорта и развития дорожно-транспортной инфраструктуры города Москвы,Центральный административный округ,Басманный район,"Российская Федерация, город Москва, внутригородская территория муниципальный округ Басманный, улица Макаренко, дом 1/19",37.646283192,55.761044202
2780336531,"Станция №33, 44 кВт",Департамент транспорта и развития дорожно-транспортной инфраструктуры города Москвы,Центральный административный округ,Басманный район,"Российская Федерация, город Москва, внутригородская территория муниципальный округ Басманный, Хохловский переулок, дом 13, строение 1",37.6439563,55.7568865
2786357859,"Станция №91, 22 кВт",Департамент транспорта и развития дорожно-транспортной инфраструктуры города Москвы,Северный административный округ,район Западное Дегунино,"город Москва, Талдомская улица, дом 1",37.512687,55.86969
2795039741,"Станция №3, 44 кВт",Департамент транспорта и развития дорожно-транспортной инфраструктуры города Москвы,Центральный административный округ,Тверской район,"Российская Федерация, город Москва, внутригородская территория муниципальный округ Тверской, Садовая-Самотёчная улица, дом 1",37.6129299,55.7736522
2795042157,"Станция №10, 44 кВт",Департамент транспорта и развития дорожно-транспортной инфраструктуры города Москвы,Центральный административный округ,Басманный район,"Российская Федерация, город Москва, внутригородская территория муниципальный округ Басманный, Хохловский переулок, дом 13, строение 1",37.6439563,55.7568865
2795042158,"Станция №11, 44 кВт",Департамент транспорта и развития дорожно-транспортной инфраструктуры города Москвы,Центральный административный округ,Тверской район,"Российская Федерация, город Москва, внутригородская территория муниципальный округ Тверской, Садовая-Самотёчная улица, дом 1",37.6128709,55.7736507
2795042160,"Станция №12, 44 кВт",Департамент транспорта и развития дорожно-транспортной инфраструктуры города Москвы,Центральный административный округ,Басманный район,"Российская Федерация, город Москва, внутригородская территория муниципальный округ Басманный, Потаповский переулок, дом 14",37.6415705,55.7596112
2795042161,"Станция №14, 44 кВт",Департамент транспорта и развития дорожно-транспортной инфраструктуры города Москвы,Центральный административный округ,район Замоскворечье,"Российская Федерация, город Москва, внутригородская территория муниципальный округ Замоскворечье, Большая Татарская улица, дом 26",37.6335328,55.7393355
2795042163,"Станция №15, 40 кВт",Департамент транспорта и развития дорожно-транспортной инфраструктуры города Москвы,Центральный административный округ,район Якиманка,"Российская Федерация, город Москва, внутригородская территория муниципальный округ Якиманка, Старомонетный переулок, дом 11, строение 1",37.6182487,55.7410723
2795042165,"Станция №16, 44 кВт",Департамент транспорта и развития дорожно-транспортной инфраструктуры города Москвы,Центральный административный округ,район Якиманка,"Российская Федерация, город Москва, внутригородская территория муниципальный округ Якиманка, 1-й Голутвинский переулок, дом 3-5, строение 1",37.6137754,55.7392732
2795042166,"Станция №17, 44 кВт",Департамент транспорта и развития дорожно-транспортной инфраструктуры города Москвы,Южный административный округ,Даниловский район,"Российская Федерация, город Москва, внутригородская территория муниципальный округ Даниловский, Автозаводская улица, дом 7",37.6601935,55.7079773
2795042171,"Станция №21, 44 кВт",Департамент транспорта и развития дорожно-транспортной инфраструктуры города Москвы,Центральный административный округ,Басманный район,"Российская Федерация, город Москва, внутригородская территория муниципальный округ Басманный, Колпачный переулок, дом 3, строение 2",37.64312,55.7583
2795042172,"Станция №22, 44 кВт",Департамент транспорта и развития дорожно-транспортной инфраструктуры города Москвы,Южный административный округ,Даниловский район,"город Москва, улица Серпуховский Вал, дом 4",37.6199152,55.7116841
2795042174,"Станция №23, 44 кВт",Департамент транспорта и развития дорожно-транспортной инфраструктуры города Москвы,Южный административный округ,Даниловский район,"город Москва, улица Серпуховский Вал, дом 4",37.6196926,55.7116825
2795042177,"Станция №25, 44 кВт",Департамент транспорта и развития дорожно-транспортной инфраструктуры города Москвы,Центральный административный округ,район Хамовники,"город Москва, Курсовой переулок, дом 4",37.6058081,55.7421081
2795042179,"Станция №26, 44 кВт",Департамент транспорта и развития дорожно-транспортной инфраструктуры города Москвы,Центральный административный округ,район Якиманка,"Российская Федерация, город Москва, внутригородская территория муниципальный округ Якиманка, улица Большая Полянка, дом 1/3",37.6165839,55.7425462
2795042181,"Станция №27, 44 кВт",Департамент транспорта и развития дорожно-транспортной инфраструктуры города Москвы,Центральный административный округ,Таганский район,"Российская Федерация, город Москва, внутригородская территория муниципальный округ Таганский, Большой Николоворобинский переулок, дом 7, строение 2",37.6481531,55.7515242
2795042186,"Станция №29, 44 кВт",Департамент транспорта и развития дорожно-транспортной инфраструктуры города Москвы,Центральный административный округ,район Замоскворечье,"Российская Федерация, город Москва, внутригородская территория муниципальный округ Замоскворечье, Руновский переулок, дом 5, строение 1",37.6354291,55.7428732
2795042189,"Станция №31, 44 кВт",Департамент транспорта и развития дорожно-транспортной инфраструктуры города Москвы,Центральный административный округ,район Замоскворечье,"Российская Федерация, город Москва, внутригородская территория муниципальный округ Замоскворечье, Озерковская набережная, дом 44",37.6395517,55.7362817
2795042190,"Станция №32, 44 кВт",Департамент транспорта и развития дорожно-транспортной инфраструктуры города Москвы,Центральный административный округ,район Замоскворечье,"Российская Федерация, город Москва, внутригородская территория муниципальный округ Замоскворечье, Озерковская набережная, дом 44",37.6394873,55.736374
2795042192,"Станция №33, 44 кВт",Департамент транспорта и развития дорожно-транспортной инфраструктуры города Москвы,Центральный административный округ,Басманный район,"Российская Федерация, город Москва, внутригородская территория муниципальный округ Басманный, улица Макаренко, дом 1/19",37.6467519,55.7612478
2795042193,"Станция №34, 44 кВт",Департамент транспорта и развития дорожно-транспортной инфраструктуры города Москвы,Центральный административный округ,район Замоскворечье,"Российская Федерация, город Москва, внутригородская территория муниципальный округ Замоскворечье, улица Балчуг, дом 5",37.6259073,55.7471761
2795042195,"Станция №35, 44 кВт",Департамент транспорта и развития дорожно-транспортной инфраструктуры города Москвы,Центральный административный округ,район Замоскворечье,"Российская Федерация, город Москва, внутригородская территория муниципальный округ Замоскворечье, улица Балчуг, дом 5",37.6259247,55.7471375
2795042196,"Станция №36, 44 кВт",Департамент транспорта и развития дорожно-транспортной инфраструктуры города Москвы,Центральный административный округ,Басманный район,"Российская Федерация, город Москва, внутригородская территория муниципальный округ Басманный, Малый Трёхсвятительский переулок, дом 3, строение 6",37.6468464,55.7543968
2795042199,"Станция №37, 44 кВт",Департамент транспорта и развития дорожно-транспортной инфраструктуры города Москвы,Центральный административный округ,Пресненский район,"Российская Федерация, город Москва, внутригородская территория муниципальный округ Пресненский, улица Климашкина, дом 17",37.5683832,55.7678365
2795042208,"Станция №41, 44 кВт",Департамент транспорта и развития дорожно-транспортной инфраструктуры города Москвы,Центральный административный округ,Таганский район,"город Москва, улица Александра Солженицына, дом 23А, строение 1",37.6632673,55.7442654
2795042210,"Станция №43, 44 кВт",Департамент транспорта и развития дорожно-транспортной инфраструктуры города Москвы,Южный административный округ,Донской район,"Российская Федерация, город Москва, внутригородская территория муниципальный округ Донской, улица Стасовой, дом 4",37.593809,55.7142675
2795042212,"Станция №44, 44 кВт",Департамент транспорта и развития дорожно-транспортной инфраструктуры города Москвы,Южный административный округ,Донской район,"Российская Федерация, город Москва, внутригородская территория муниципальный округ Донской, улица Стасовой, дом 4",37.593741,55.7142799
2795042216,"Станция №47, 44 кВт",Департамент транспорта и развития дорожно-транспортной инфраструктуры города Москвы,Центральный административный округ,Мещанский район,"Российская Федерация, город Москва, внутригородская территория муниципальный округ Мещанский, Большая Переяславская улица, дом 17",37.640051,55.7882656
2795042222,"Станция №51, 44 кВт",Департамент транспорта и развития дорожно-транспортной инфраструктуры города Москвы,Западный административный округ,район Дорогомилово,"Российская Федерация, город Москва, внутригородская территория муниципальный округ Дорогомилово, набережная Тараса Шевченко, дом 9",37.5614657,55.7522811
2795042223,"Станция №52, 44 кВт",Департамент транспорта и развития дорожно-транспортной инфраструктуры города Москвы,Южный административный округ,Даниловский район,"Российская Федерация, город Москва, внутригородская территория муниципальный округ Даниловский, 1-й Кожуховский проезд, дом 1/7",37.6585144,55.7044607
2795042225,"Станция №53, 44 кВт",Департамент транспорта и развития дорожно-транспортной инфраструктуры города Москвы,Южный административный округ,Даниловский район,"Российская Федерация, город Москва, внутригородская территория муниципальный округ Даниловский, Восточная улица, дом 11, корпус 1",37.6588845,55.7130336
2795042226,"Станция №54, 44 кВт",Департамент транспорта и развития дорожно-транспортной инфраструктуры города Москвы,Центральный административный округ,Пресненский район,"Российская Федерация, город Москва, внутригородская территория муниципальный округ Пресненский, улица Климашкина, дом 17",37.5683135,55.7678297
2795042228,"Станция №55, 44 кВт",Департамент транспорта и развития дорожно-транспортной инфраструктуры города Москвы,Центральный административный округ,Красносельский район,"Российская Федерация, город Москва, внутригородская территория муниципальный округ Красносельский, Докучаев переулок, дом 3, строение 1",37.6423832,55.7744442
2795042229,"Станция №56, 44 кВт",Департамент транспорта и развития дорожно-транспортной инфраструктуры города Москвы,Центральный административный округ,Красносельский район,"Российская Федерация, город Москва, внутригородская территория муниципальный округ Красносельский, Докучаев переулок, дом 3, строение 1",37.6424637,55.7744245
2795042233,"Станция №58, 44 кВт",Департамент транспорта и развития дорожно-транспортной инфраструктуры города Москвы,Центральный административный округ,Пресненский район,"Российская Федерация, город Москва, внутригородская территория муниципальный округ Пресненский, улица Николаева, дом 1",37.5682692,55.7556774
2795042239,"Станция №61, 44 кВт",Департамент транспорта и развития дорожно-транспортной инфраструктуры города Москвы,Южный административный округ,Донской район,"Российская Федерация, город Москва, внутригородская территория муниципальный округ Донской, Малый Калужский переулок, дом 2, строение 4",37.6005012,55.7190489
2795042244,"Станция №68, 44 кВт",Департамент транспорта и развития дорожно-транспортной инфраструктуры города Москвы,Центральный административный округ,Таганский район,"город Москва, улица Александра Солженицына, дом 23А, строение 1",37.6631922,55.7442397
2795042245,"Станция №77, 44 кВт",Департамент транспорта и развития дорожно-транспортной инфраструктуры города Москвы,Центральный административный округ,Пресненский район,"Российская Федерация, город Москва, внутригородская территория муниципальный округ Пресненский, Волков переулок, дом 13, строение 1",37.5741272,55.763616
2795042247,"Станция №1623, 150 кВт",Департамент транспорта и развития дорожно-транспортной инфраструктуры города Москвы,Северо-Западный административный округ,район Хорошёво-Мнёвники,"город Москва, набережная Новикова-Прибоя, дом 6, корпус 2, строение 2",37.448415,55.782786
2795042248,"Станция №1624, 150 кВт",Департамент транспорта и развития дорожно-транспортной инфраструктуры города Москвы,Северо-Западный административный округ,район Хорошёво-Мнёвники,"город Москва, набережная Новикова-Прибоя, дом 6, корпус 2, строение 2",37.448328,55.782789
2795042249,"Станция №1638, 150 кВт",Департамент транспорта и развития дорожно-транспортной инфраструктуры города Москвы,Южный административный округ,Донской район,"Российская Федерация, город Москва, внутригородская территория муниципальный округ Донской, улица Шаболовка, дом 52",37.606803,55.713245
2795042250,"Станция №1639, 150 кВт",Департамент транспорта и развития дорожно-транспортной инфраструктуры города Москвы,Южный административный округ,Донской район,"Российская Федерация, город Москва, внутригородская территория муниципальный округ Донской, улица Шаболовка, дом 52",37.606768,55.713163
2795042251,"Станция №9842, 60 кВт",Департамент транспорта и развития дорожно-транспортной инфраструктуры города Москвы,Центральный административный округ,Тверской район,"Российская Федерация, город Москва, внутригородская территория муниципальный округ Тверской, 2-й Щемиловский переулок, дом 8-10, корпус Б",37.608462,55.777509
2795042252,"Станция №1657, 150 кВт",Департамент транспорта и развития дорожно-транспортной инфраструктуры города Москвы,Юго-Западный административный округ,район Южное Бутово,"Российская Федерация, город Москва, внутригородская территория муниципальный округ Южное Бутово, аллея Витте, дом 8",37.541502,55.547524
2795042253,"Станция №1658, 150 кВт",Департамент транспорта и развития дорожно-транспортной инфраструктуры города Москвы,Юго-Западный административный округ,район Южное Бутово,"Российская Федерация, город Москва, внутригородская территория муниципальный округ Южное Бутово, аллея Витте, дом 8",37.541537,55.547486
2795042254,"Станция №9852, 60 кВт",Департамент транспорта и развития дорожно-транспортной инфраструктуры города Москвы,Центральный административный округ,Тверской район,"Российская Федерация, город Москва, внутригородская территория муниципальный округ Тверской, 2-й Щемиловский переулок, дом 8-10, корпус Б",37.608511,55.777624
2795042255,"Станция №476800, 60 кВт",Департамент транспорта и развития дорожно-транспортной инфраструктуры города Москвы,Северный административный округ,район Восточное Дегунино,"Российская Федерация, город Москва, внутригородская территория муниципальный округ Восточное Дегунино, улица 800-летия Москвы, дом 26, корпус 2",37.557684,55.878467
2795042256,"Станция №1674, 150 кВт",Департамент транспорта и развития дорожно-транспортной инфраструктуры города Москвы,Северо-Западный административный округ,район Южное Тушино,"Российская Федерация, город Москва, внутригородская территория муниципальный округ Южное Тушино, Походный проезд, дом 4, строение 2",37.410302,55.834457
2795042258,"Станция №1678, 150 кВт",Департамент транспорта и развития дорожно-транспортной инфраструктуры города Москвы,Западный административный округ,район Кунцево,"Российская Федерация, город Москва, внутригородская территория муниципальный округ Кунцево, Ельнинская улица, дом 24",37.420726,55.739204
2795042259,"Станция №1679, 150 кВт",Департамент транспорта и развития дорожно-транспортной инфраструктуры города Москвы,Западный административный округ,район Кунцево,"Российская Федерация, город Москва, внутригородская территория муниципальный округ Кунцево, Ельнинская улица, дом 24",37.420887,55.73912
2795042270,"Станция №4792, 60 кВт",Департамент транспорта и развития дорожно-транспортной инфраструктуры города Москвы,Северный административный округ,Савёловский район,"Российская Федерация, город Москва, внутригородская территория муниципальный округ Савеловский, 2-я Квесисская улица, дом 11",37.581197,55.795348
2795042271,"Станция №452800, 60 кВт",Департамент транспорта и развития дорожно-транспортной инфраструктуры города Москвы,Северный административный округ,Бескудниковский район,"Российская Федерация, город Москва, внутригородская территория муниципальный округ Бескудниковский, улица 800-летия Москвы, дом 6",37.537791,55.876737
2795042272,"Станция №4822, 60 кВт",Департамент транспорта и развития дорожно-транспортной инфраструктуры города Москвы,Северо-Восточный административный округ,район Марьина Роща,"Российская Федерация, город Москва, внутригородская территория муниципальный округ Марьина Роща, 2-я улица Марьиной Рощи, дом 10/14",37.619043,55.7947587
2795042273,"Станция №4331, 60 кВт",Департамент транспорта и развития дорожно-транспортной инфраструктуры города Москвы,Северный административный округ,район Аэропорт,"Российская Федерация, город Москва, внутригородская территория муниципальный округ Аэропорт, 1-я Аэропортовская улица, дом 6",37.536213,55.800947
2795042274,"Станция №766, 150 кВт",Департамент транспорта и развития дорожно-транспортной инфраструктуры города Москвы,Северо-Западный административный округ,район Щукино,"город Москва, Авиационная улица, дом 68, строение 1",37.45557,55.809637
2795042277,"Станция №961, 60 кВт",Департамент транспорта и развития дорожно-транспортной инфраструктуры города Москвы,Центральный административный округ,Мещанский район,"Российская Федерация, город Москва, внутригородская территория муниципальный округ Мещанский, улица Щепкина, дом 61/2",37.627085,55.784738
2795042278,"Станция №962, 60 кВт",Департамент транспорта и развития дорожно-транспортной инфраструктуры города Москвы,Центральный административный округ,Мещанский район,"Российская Федерация, город Москва, внутригородская территория муниципальный округ Мещанский, улица Щепкина, дом 61/2",37.626914,55.784871
2795042279,"Станция №963, 60 кВт",Департамент транспорта и развития дорожно-транспортной инфраструктуры города Москвы,Центральный административный округ,Красносельский район,"Российская Федерация, город Москва, внутригородская территория муниципальный округ Красносельский, Мясницкая улица, дом 13, строение 1",37.633549,55.761925
2795042280,"Станция №964, 60 кВт",Департамент транспорта и развития дорожно-транспортной инфраструктуры города Москвы,Северо-Восточный административный округ,Останкинский район,"город Москва, Большая Марьинская улица, дом 11",37.634443,55.806987
2795042282,"Станция №965, 60 кВт",Департамент транспорта и развития дорожно-транспортной инфраструктуры города Москвы,Северо-Восточный административный округ,Останкинский район,"город Москва, Большая Марьинская улица, дом 11",37.634443,55.806921
2795042283,"Станция №966, 60 кВт",Департамент транспорта и развития дорожно-транспортной инфраструктуры города Москвы,Северо-Восточный административный округ,Останкинский район,"Российская Федерация, город Москва, внутригородская территория муниципальный округ Останкинский, проспект Мира, дом 95",37.634706,55.807403
2795042284,"Станция №967, 60 кВт",Департамент транспорта и развития дорожно-транспортной инфраструктуры города Москвы,Северо-Восточный административный округ,Останкинский район,"Российская Федерация, город Москва, внутригородская территория муниципальный округ Останкинский, проспект Мира, дом 95",37.63462,55.807405
2795042285,"Станция №968, 60 кВт",Департамент транспорта и развития дорожно-транспортной инфраструктуры города Москвы,Западный административный округ,район Раменки,"Российская Федерация, город Москва, внутригородская территория муниципальный округ Раменки, улица Столетова, дом 7, корпус 1",37.49993,55.705422
2795042286,"Станция №973, 60 кВт",Департамент транспорта и развития дорожно-транспортной инфраструктуры города Москвы,Западный административный округ,район Раменки,"Российская Федерация, город Москва, внутригородская территория муниципальный округ Раменки, улица Столетова, дом 7, корпус 1",37.499739,55.705468
2795042287,"Станция №974, 60 кВт",Департамент транспорта и развития дорожно-транспортной инфраструктуры города Москвы,Западный административный округ,район Раменки,"Российская Федерация, город Москва, внутригородская территория муниципальный округ Раменки, улица Столетова, дом 7, корпус 1",37.499552,55.705521
2795042288,"Станция №975, 60 кВт",Департамент транспорта и развития дорожно-транспортной инфраструктуры города Москвы,Центральный административный округ,Красносельский район,"Российская Федерация, город Москва, внутригородская территория муниципальный округ Красносельский, Милютинский переулок, дом 5, строение 1",37.631659,55.761938
2795042289,"Станция №976, 60 кВт",Департамент транспорта и развития дорожно-транспортной инфраструктуры города Москвы,Западный административный округ,район Фили-Давыдково,"город Москва, Кутузовский проспект, дом 88",37.450454,55.72525
2795042290,"Станция №465, 60 кВт",Департамент транспорта и развития дорожно-транспортной инфраструктуры города Москвы,Северо-Восточный административный округ,район Северное Медведково,"Российская Федерация, город Москва, внутригородская территория муниципальный округ Северное Медведково, Широкая улица, дом 5, корпус 2",37.656548,55.88792
2795042291,"Станция №977, 60 кВт",Департамент транспорта и развития дорожно-транспортной инфраструктуры города Москвы,Западный административный округ,район Фили-Давыдково,"город Москва, Кутузовский проспект, дом 88",37.450423,55.725295
2795042292,"Станция №467, 60 кВт",Департамент транспорта и развития дорожно-транспортной инфраструктуры города Москвы,Северо-Восточный административный округ,Алтуфьевский район,"Российская Федерация, город Москва, внутригородская территория муниципальный округ Алтуфьевский, Бибиревская улица, дом 11",37.596542,55.880457
2795042293,"Станция №980, 60 кВт",Департамент транспорта и развития дорожно-транспортной инфраструктуры города Москвы,Центральный административный округ,Тверской район,"Российская Федерация, город Москва, внутригородская территория муниципальный округ Тверской, Краснопролетарская улица, дом 16, строение 2",37.606161,55.778036
2795042294,"Станция №981, 60 кВт",Департамент транспорта и развития дорожно-транспортной инфраструктуры города Москвы,Центральный административный округ,Тверской район,"Российская Федерация, город Москва, внутригородская территория муниципальный округ Тверской, Краснопролетарская улица, дом 16, строение 2",37.606236,55.777927
2795042295,"Станция №982, 60 кВт",Департамент транспорта и развития дорожно-транспортной инфраструктуры города Москвы,Северный административный округ,район Аэропорт,"Российская Федерация, город Москва, внутригородская территория муниципальный округ Савеловский, Башиловская улица, дом 2, строение 3",37.570493,55.790238
2795042296,"Станция №983, 60 кВт",Департамент транспорта и развития дорожно-транспортной инфраструктуры города Москвы,Северный административный округ,район Аэропорт,"Российская Федерация, город Москва, внутригородская территория муниципальный округ Аэропорт, улица Новая Башиловка, дом 3",37.570646,55.79014
2795042297,"Станция №988, 60 кВт",Департамент транспорта и развития дорожно-транспортной инфраструктуры города Москвы,Северо-Восточный административный округ,Бутырский район,"Российская Федерация, город Москва, внутригородская территория муниципальный округ Бутырский, Большая Новодмитровская улица, дом 36, строение 12",37.584514,55.80473
2795042299,"Станция №989, 60 кВт",Департамент транспорта и развития дорожно-транспортной инфраструктуры города Москвы,Северо-Восточный административный округ,Бутырский район,"Российская Федерация, город Москва, внутригородская территория муниципальный округ Бутырский, Большая Новодмитровская улица, дом 36, строение 12",37.58455,55.804612
2795042300,"Станция №990, 60 кВт",Департамент транспорта и развития дорожно-транспортной инфраструктуры города Москвы,Юго-Восточный административный округ,район Кузьминки,"Российская Федерация, город Москва, внутригородская территория муниципальный округ Кузьминки, Волгоградский проспект, дом 110, корпус 3",37.767259,55.706452
2795042301,"Станция №991, 60 кВт",Департамент транспорта и развития дорожно-транспортной инфраструктуры города Москвы,Юго-Восточный административный округ,район Кузьминки,"Российская Федерация, город Москва, внутригородская территория муниципальный округ Кузьминки, Волгоградский проспект, дом 110, корпус 3",37.767239,55.706407
2795042302,"Станция №992, 60 кВт",Департамент транспорта и развития дорожно-транспортной инфраструктуры города Москвы,Центральный административный округ,Красносельский район,"Российская Федерация, город Москва, внутригородская территория муниципальный округ Красносельский, Милютинский переулок, дом 5, строение 1",37.631671,55.762029
2795042304,"Станция №994, 60 кВт",Департамент транспорта и развития дорожно-транспортной инфраструктуры города Москвы,Юго-Восточный административный округ,район Лефортово,"Российская Федерация, город Москва, внутригородская территория муниципальный округ Лефортово, проезд Завода Серп и Молот, дом 4",37.697594,55.754586
2795042308,"Станция №996, 60 кВт",Департамент транспорта и развития дорожно-транспортной инфраструктуры города Москвы,Центральный административный округ,Красносельский район,"Российская Федерация, город Москва, внутригородская территория муниципальный округ Красносельский, Русаковская улица, дом 12, корпус 3",37.676249,55.78341
2795042310,"Станция №997, 60 кВт",Департамент транспорта и развития дорожно-транспортной инфраструктуры города Москвы,Центральный административный округ,Красносельский район,"Российская Федерация, город Москва, внутригородская территория муниципальный округ Красносельский, Русаковская улица, дом 12, корпус 3",37.676109,55.783308
2795042312,"Станция №998, 60 кВт",Департамент транспорта и развития дорожно-транспортной инфраструктуры города Москвы,Центральный административный округ,Таганский район,"город Москва, улица Симоновский Вал, дом 2",37.660028,55.729701
2795042313,"Станция №999, 60 кВт",Департамент транспорта и развития дорожно-транспортной инфраструктуры города Москвы,Восточный административный округ,район Косино-Ухтомский,"город Москва, улица Руднёвка, дом 2, строение 1",37.88624,55.715026
2795042315,"Станция №1615, 150 кВт",Департамент транспорта и развития дорожно-транспортной инфраструктуры города Москвы,Северный административный округ,Савёловский район,"Российская Федерация, город Москва, внутригородская территория муниципальный округ Савеловский, Башиловская улица, дом 2, строение 3",37.577585,55.793649
2795042316,"Станция №1616, 150 кВт",Департамент транспорта и развития дорожно-транспортной инфраструктуры города Москвы,Северный административный округ,Савёловский район,"Российская Федерация, город Москва, внутригородская территория муниципальный округ Савеловский, Башиловская улица, дом 2, строение 3",37.577762,55.793666
2795042318,"Станция №1641, 150 кВт",Департамент транспорта и развития дорожно-транспортной инфраструктуры города Москвы,Южный административный округ,Нагорный район,"Российская Федерация, город Москва, внутригородская территория муниципальный округ Нагорный, Электролитный проезд, дом 9, корпус 1, строение 5",37.616356,55.673024
2795042319,"Станция №1670, 150 кВт",Департамент транспорта и развития дорожно-транспортной инфраструктуры города Москвы,Северный административный округ,район Левобережный,"город Москва, Фестивальная улица, дом 41, корпус 1",37.483997,55.857911
2795042322,"Станция №1671, 150 кВт",Департамент транспорта и развития дорожно-транспортной инфраструктуры города Москвы,Северный административный округ,район Левобережный,"город Москва, Фестивальная улица, дом 41, корпус 1",37.483904,55.857884
2795042323,"Станция №337, 60 кВт",Департамент транспорта и развития дорожно-транспортной инфраструктуры города Москвы,Юго-Восточный административный округ,Южнопортовый район,"Российская Федерация, город Москва, внутригородская территория муниципальный округ Южнопортовый, Волгоградский проспект, дом 32, корпус 15",37.697378,55.7201
2795042325,"Станция №338, 60 кВт",Департамент транспорта и развития дорожно-транспортной инфраструктуры города Москвы,Юго-Восточный административный округ,Южнопортовый район,"Российская Федерация, город Москва, внутригородская территория муниципальный округ Южнопортовый, Волгоградский проспект, дом 32, корпус 15",37.697015,55.720001
2795042326,"Станция №98, 22 кВт",Департамент транспорта и развития дорожно-транспортной инфраструктуры города Москвы,Северо-Восточный административный округ,район Марьина Роща,"Российская Федерация, город Москва, внутригородская территория муниципальный округ Марьина Роща, улица Двинцев, дом 12, корпус 1",37.59871,55.79668
2795042328,"Станция №270, 22 кВт",Департамент транспорта и развития дорожно-транспортной инфраструктуры города Москвы,Южный административный округ,Донской район,"Российская Федерация, город Москва, внутригородская территория муниципальный округ Донской, Загородное шоссе, дом 18А, строение 14",37.59851,55.694665
2795042329,"Станция №796, 50 кВт",Департамент транспорта и развития дорожно-транспортной инфраструктуры города Москвы,Центральный административный округ,район Арбат,"Российская Федерация, город Москва, внутригородская территория муниципальный округ Арбат, улица Новый Арбат, дом 36",37.57586,55.753866
2795880866,"Станция №42, 44 кВт",Департамент транспорта и развития дорожно-транспортной инфраструктуры города Москвы,Центральный административный округ,район Хамовники,"Российская Федерация, город Москва, внутригородская территория муниципальный округ Хамовники, 2-й Обыденский переулок, дом 3, строение 1",37.6048344,55.7416436
2795880867,"Станция №50, 44 кВт",Департамент транспорта и развития дорожно-транспортной инфраструктуры города Москвы,Западный административный округ,район Дорогомилово,"Российская Федерация, город Москва, внутригородская территория муниципальный округ Дорогомилово, Студенческая улица, дом 42",37.5388182,55.738679
2801707441,"Станция №432, 60 кВт",Департамент транспорта и развития дорожно-транспортной инфраструктуры города Москвы,Северный административный округ,район Аэропорт,"Российская Федерация, город Москва, внутригородская территория муниципальный округ Аэропорт, улица Академика Ильюшина, дом 12",37.545366,55.805819
